Record ID Number,TIGER Address Range Match Indicator,TIGER Match Type,TIGER Output Address,"Interpolated Longitude, Latitude",TIGER Line ID,TIGER Line ID Side,State Code,County Code,Tract Code,Block Code,address,city,state,zip
230,Match,Exact,"402 UPCHURCH ST, APEX, NC, 27502","-78.861404,35.728756",641577797,L,37,183,53414,2022,402 UPCHURCH STREET, APEX, NC,27502
351,Match,Exact,"3707 MARSH CREEK RD, RALEIGH, NC, 27604","-78.575386,35.819656",72510291,L,37,183,52707,2022,3707 MARSH CREEK RD, RALEIGH, NC,27604
231,Match,Exact,"524 SUNNYBROOK RD, RALEIGH, NC, 27610","-78.58336,35.773598",639848591,L,37,183,52001,2022,524 SUNNYBROOK ROAD, RALEIGH, NC,27610
111,Match,Exact,"1002 MULFORD CT, KNIGHTDALE, NC, 27545","-78.48921,35.7935",72642465,R,37,183,54115,2000,1002 MULFORD COURT, KNIGHTDALE, NC,27545
232,Match,Exact,"201 MORRISVILLE SQUARE WAY, MORRISVILLE, NC, 27560","-78.82875,35.819992",72641399,L,37,183,53607,1108,201 MORRISVILLE SQUARE WAY, MORRISVILLE, NC,27560
112,Match,Exact,"12600 SPRUCE TREE WAY, RALEIGH, NC, 27614","-78.56188,35.93929",72648463,R,37,183,54208,1120,12600 SPRUCE TREE WAY, RALEIGH, NC,27614
233,Match,Exact,"2625 TRAWICK RD, RALEIGH, NC, 27604","-78.579704,35.816616",72538742,L,37,183,52706,1000,2625 TRAWICK ROAD, RALEIGH, NC,27604
354,Match,Exact,"5993 YATES MILL POND RD, RALEIGH, NC, 27606","-78.7285,35.739223",208347852,L,37,183,53007,1000,5993 YATES MILL POND RD, RALEIGH, NC,27606
113,Match,Exact,"3922 BUFFALOE RD, RALEIGH, NC, 27604","-78.57197,35.830658",647313241,R,37,183,52707,2000,3922 BUFFALOE ROAD, RALEIGH, NC,27604
234,Match,Exact,"6620 SIX FORKS RD, RALEIGH, NC, 27615","-78.63997,35.86958",72638296,R,37,183,54006,2003,6620 SIX FORKS ROAD, RALEIGH, NC,27615
114,Match,Exact,"301 N KING CHARLES RD, RALEIGH, NC, 27610","-78.6111,35.7838",647296785,L,37,183,51900,1036,301 NORTH KING CHARLES ROAD, RALEIGH, NC,27610
115,Match,Exact,"8504 HARPS MILL RD, RALEIGH, NC, 27615","-78.60151,35.89183",208362673,R,37,183,54017,1011,8504 HARPS MILL RD, RALEIGH, NC,27615
236,Match,Exact,"204 DIXIE TRL, RALEIGH, NC, 27607","-78.67571,35.793304",72501985,R,37,183,51400,2006,204 DIXIE TRAIL, RALEIGH, NC,27607
116,Match,Exact,"3500 BUFFALOE RD, RALEIGH, NC, 27604","-78.57937,35.831814",612829425,L,37,183,52707,2003,3500 BUFFALOE ROAD, RALEIGH, NC,27604
237,Match,Exact,"10275 CHAPEL HILL RD, MORRISVILLE, NC, 27560","-78.82695,35.830032",72496707,L,37,183,53607,1000,10275 CHAPEL HILL RD, MORRISVILLE, NC,27560
117,Match,Exact,"112 BYRUM ST, CARY, NC, 27511","-78.78009,35.781178",72498530,R,37,183,53506,1002,112 BYRUM ST, CARY, NC,27511
238,Match,Exact,"417 WALTON ST, RALEIGH, NC, 27610","-78.60751,35.77434",72509659,L,37,183,52002,4012,417 WALTON ST, RALEIGH, NC,27610
118,Match,Exact,"2255 HERBERT AKINS RD, FUQUAY VARINA, NC, 27526","-78.80145,35.62221",648795445,L,37,183,53205,1035,2255 HERBERT AKINS RD, FUQUAY-VARINA, NC,27526
239,Match,Non_Exact,"2705 NEW BERN AVE, RALEIGH, NC, 27610","-78.59063,35.784977",612817639,R,37,183,51900,1002,2705 NEW BERN AVE, RALEIGH, NC,27610
119,Match,Exact,"3425 ROGERS RD, WAKE FOREST, NC, 27587","-78.51265,35.95032",208365881,L,37,183,54208,1034,3425 ROGERS ROAD, WAKE FOREST, NC,27587
10,Match,Exact,"610 RAYMOND DR, WENDELL, NC, 27591","-78.357666,35.7854",72643284,L,37,183,54404,1062,610 RAYMOND DRIVE, WENDELL, NC,27591
11,Match,Exact,"916 ROCK QUARRY RD, RALEIGH, NC, 27610","-78.61753,35.768948",639837920,R,37,183,50800,3003,916 ROCK QUARRY RD SUITE 101, RALEIGH, NC,27610
12,Match,Exact,"6410 MCCRIMMON PKWY, MORRISVILLE, NC, 27560","-78.85924,35.83361",635024950,L,37,183,53602,1051,6410 MCCRIMMON PARKWAY, MORRISVILLE, NC,27560
16,Match,Exact,"7229 PILGRIM RD, RALEIGH, NC, 27616","-78.545746,35.874313",72506762,L,37,183,54014,1083,7229 PILGRIM ROAD, RALEIGH, NC,27616
18,Match,Exact,"4604 POOLE RD, RALEIGH, NC, 27610","-78.55885,35.765095",208361093,R,37,183,54106,2016,4604 POOLE RD, RALEIGH, NC,27610
19,Match,Exact,"104 CLARENDON CRES, RALEIGH, NC, 27610","-78.602715,35.780582",208347485,R,37,183,51900,1015,104 CLARENDON CRESCENT, RALEIGH, NC,27610
240,Match,Exact,"128 MORRISVILLE SQUARE WAY, MORRISVILLE, NC, 27560","-78.8294,35.82012",72641399,R,37,183,53607,1085,128 MORRISVILLE SQUARE WAY, MORRISVILLE, NC,27560
120,Match,Exact,"615 MACK TODD RD, ZEBULON, NC, 27597","-78.327934,35.816776",208345011,R,37,183,54302,4008,615 MACK TODD ROAD, ZEBULON, NC,27597
241,Match,Exact,"102 YMCA DR, CARY, NC, 27513","-78.83407,35.776077",639836036,R,37,183,53422,1018,102 YMCA DRIVE, CARY, NC,27513
121,Match,Exact,"1901 RIDGE RD, RALEIGH, NC, 27607","-78.68232,35.815586",72501441,L,37,183,51501,2013,1901 RIDGE ROAD, RALEIGH, NC,27607
242,Match,Exact,"2190 N SALEM ST, APEX, NC, 27523","-78.83403,35.75722",648796389,R,37,183,53416,1001,2190 NORTH SALEM STREET SUITE 103, APEX, NC,27523
1,Match,Exact,"4020 MITCHELL MILL RD, RALEIGH, NC, 27616","-78.50729,35.882393",639244353,L,37,183,54110,3005,4020 MITCHELL MILL RD, RALEIGH, NC,27616
122,Match,Exact,"7410 FALLS OF NEUSE RD, RALEIGH, NC, 27615","-78.6272,35.885513",208346216,R,37,183,54011,2010,7410 FALLS OF NEUSE RD, RALEIGH, NC,27615
243,Match,Exact,"1110 NEWTON RD, RALEIGH, NC, 27615","-78.62964,35.879597",208346214,R,37,183,54006,1001,1110 NEWTON ROAD, RALEIGH, NC,27615
2,Match,Exact,"838 BELMONT DR, RALEIGH, NC, 27610","-78.603615,35.765587",72509769,R,37,183,52002,2011,838 BELMONT DRIVE, RALEIGH, NC,27610
244,Match,Exact,"4301 PEARL RD, RALEIGH, NC, 27610","-78.56111,35.72391",630182148,R,37,183,52807,2066,4301 PEARL ROAD, RALEIGH, NC,27610
3,Match,Exact,"3701 SUMNER BLVD, RALEIGH, NC, 27616","-78.57285,35.86338",649508506,L,37,183,54015,1007,3701-130 SUMNER BLVD, RALEIGH, NC,27616
124,Match,Exact,"2128 MINGO BLUFF BLVD, KNIGHTDALE, NC, 27545","-78.522514,35.77525",641564619,L,37,183,54114,2008,2128 MINGO BLUFF BLVD, KNIGHTDALE, NC,27545
245,Match,Exact,"551 JAMES JACKSON AVE, CARY, NC, 27513","-78.81253,35.799583",639845573,R,37,183,53523,2003,551 JAMES JACKSON AVE, CARY, NC,27513
4,Match,Exact,"5429 KISSIMMEE LN, RALEIGH, NC, 27616","-78.55057,35.89057",639848306,L,37,183,54014,1051,5429 KISSIMMEE LANE, RALEIGH, NC,27616
125,Match,Non_Exact,"116 QUANTUM DR, HOLLY SPRINGS, NC, 27540","-78.83578,35.65838",208360279,R,37,183,53420,1064,116 QUANTUM STREET, HOLLY SPRINGS, NC,27540
246,Match,Non_Exact,"316 S KING CHARLES RD, RALEIGH, NC, 27610","-78.60469,35.775723",72509621,R,37,183,52001,2011,316 S KING CHARLES RD, RALEIGH, NC,27610
5,Match,Exact,"8448 HAINES CREEK LN, RALEIGH, NC, 27616","-78.550705,35.89125",639844300,R,37,183,54014,1033,8448 HAINES CREEK LANE, RALEIGH, NC,27616
6,Match,Exact,"509 MADISON AVE, CARY, NC, 27513","-78.79236,35.788616",72497737,R,37,183,53524,2008,509 MADISON AVE, CARY, NC,27513
127,Match,Exact,"101 ARBOR CREEK DR, HOLLY SPRINGS, NC, 27540","-78.83321,35.67477",72631335,L,37,183,53203,1028,101 ARBOR CREEK DR, HOLLY SPRINGS, NC,27540
248,Match,Exact,"4001 SPRING FOREST RD, RALEIGH, NC, 27616","-78.57546,35.855625",208361872,L,37,183,54015,1009,4001 SPRING FOREST RD, RALEIGH, NC,27616
128,Match,Exact,"5000 LEAD MINE RD, RALEIGH, NC, 27612","-78.67315,35.84885",208362096,R,37,183,52505,1000,5000 LEAD MINE ROAD, RALEIGH, NC,27612
8,Match,Exact,"201 CLARENDON CRES, RALEIGH, NC, 27610","-78.60347,35.782276",208347485,L,37,183,51900,1032,201 CLARENDON CRESCENT, RALEIGH, NC,27610
129,Match,Exact,"3525 ROGERS RD, WAKE FOREST, NC, 27587","-78.5081,35.94882",639850355,R,37,183,54211,2047,3525 ROGERS ROAD, WAKE FOREST, NC,27587
9,Match,Exact,"55 LILES DEAN RD, WENDELL, NC, 27591","-78.38114,35.79267",208360115,R,37,183,54404,3074,55 LILES DEAN RD, WENDELL, NC,27591
20,Match,Exact,"5105 POOLE RD, RALEIGH, NC, 27610","-78.55645,35.76325",208361093,L,37,183,54106,2015,5105 OLD POOLE RD, RALEIGH, NC,27610
21,Match,Non_Exact,"2217 NEW BERN AVE, RALEIGH, NC, 27610","-78.604225,35.779896",208347486,L,37,183,51900,1032,2217 NEW BERN AVE, RALEIGH, NC,27610
22,Match,Non_Exact,"4400 OLD POOLE RD, RALEIGH, NC, 27610","-78.56622,35.763706",72595410,R,37,183,52806,2009,4400 OLD POOLE ROAD, RALEIGH, NC,27610
23,Match,Exact,"6612 CREEDMOOR RD, RALEIGH, NC, 27613","-78.67899,35.876812",647310346,L,37,183,53707,1015,6612 CREEDMOOR ROAD, RALEIGH, NC,27613
24,Match,Non_Exact,"916 OLD HONEYCUTT RD, FUQUAY VARINA, NC, 27526","-78.76714,35.58497",601299336,L,37,183,53108,2009,916 OLD HONEYCUTT RD, FUQUAY-VARINA, NC,27526
25,Match,Non_Exact,"3901 KILDAIRE FARM RD, APEX, NC, 27539","-78.79664,35.69288",72637040,R,37,183,53421,1014,3901 KILDAIRE FARM ROAD, APEX, NC,27539
26,Match,Exact,"1605 AVERSBORO RD, GARNER, NC, 27529","-78.616974,35.69006",72576242,R,37,183,52808,1018,1605 AVERSBORO RD, GARNER, NC,27529
27,Match,Exact,"1701 AVERSBORO RD, GARNER, NC, 27529","-78.617134,35.687775",208360264,R,37,183,52808,1027,1701 AVERSBORO ROAD, GARNER, NC,27529
28,Match,Exact,"9425 BAILEYWICK RD, RALEIGH, NC, 27615","-78.664185,35.90989",208355360,L,37,183,53807,1008,9425 BAILEYWICK ROAD, RALEIGH, NC,27615
250,Match,Exact,"1530 AVENT FERRY RD, HOLLY SPRINGS, NC, 27540","-78.855225,35.63176",633848205,L,37,183,53207,2080,1530 AVENT FERRY ROAD, HOLLY SPRINGS, NC,27540
130,Match,Exact,"1000 LAWNDALE ST, GARNER, NC, 27529","-78.614105,35.697666",72653232,R,37,183,52808,1017,1000 LAWNDALE ST, GARNER, NC,27529
251,Match,Exact,"131 LATTNER CT, MORRISVILLE, NC, 27560","-78.852936,35.83087",72645181,L,37,183,53607,1040,131 LATTNER COURT, MORRISVILLE, NC,27560
131,Match,Non_Exact,"1515 CROSS LINK RD, RALEIGH, NC, 27610","-78.61596,35.753086",647295205,L,37,183,52101,4006,1515 CROSSLINK ROAD, RALEIGH, NC,27610
252,Match,Exact,"4501 W LAKE RD, APEX, NC, 27539","-78.75941,35.661877",632411793,R,37,183,53201,1008,4501 WEST LAKE RD, APEX, NC,27539
132,Match,Exact,"1801 SPRING FOREST RD, RALEIGH, NC, 27615","-78.60845,35.866737",72506030,R,37,183,54012,3002,1801 SPRING FOREST RD, RALEIGH, NC,27615
253,Match,Exact,"1710 LAURA DUNCAN RD, APEX, NC, 27502","-78.83606,35.74628",639843071,R,37,183,53418,3003,1710 LAURA DUNCAN RD, APEX, NC,27502
254,Match,Exact,"1500 EVANS RD, CARY, NC, 27513","-78.79788,35.81481",639238364,L,37,183,53512,1010,1500 EVANS ROAD, CARY, NC,27513
134,Match,Exact,"804 COLEMAN ST, RALEIGH, NC, 27610","-78.62251,35.769478",639848538,R,37,183,50800,1018,804 COLEMAN STREET, RALEIGH, NC,27610
255,Match,Exact,"844 HERITAGE LAKE RD, WAKE FOREST, NC, 27587","-78.50109,35.949173",208365898,L,37,183,54211,2047,844 HERITAGE LAKE ROAD, WAKE FOREST, NC,27587
135,Match,Exact,"2204 N MAIN ST, FUQUAY VARINA, NC, 27526","-78.747635,35.605473",639841348,R,37,183,53109,1062,2204 NORTH MAIN STREET, FUQUAY-VARINA, NC,27526
256,Match,Exact,"6941 HILBURN DR, RALEIGH, NC, 27613","-78.71616,35.87332",72604989,L,37,183,53725,1024,6941 HILBURN DR, RALEIGH, NC,27613
136,Match,Exact,"4104 SAINT JAMES CHURCH RD, RALEIGH, NC, 27604","-78.57225,35.83717",72619365,L,37,183,52707,1009,4104 SAINT JAMES CHURCH RD, RALEIGH, NC,27604
257,Match,Exact,"8521 FALLS OF NEUSE RD, RALEIGH, NC, 27615","-78.61496,35.895702",208366199,L,37,183,53808,4019,8521 FALLS OF NEUSE ROAD, RALEIGH, NC,27615
137,Match,Exact,"4030 CAPITAL BLVD, RALEIGH, NC, 27604","-78.58198,35.83561",638239226,R,37,183,52707,1002,4030-100 CAPITAL BLVD, RALEIGH, NC,27604
258,Match,Non_Exact,"2511 STATE HWY 55, CARY, NC, 27519","-78.87178,35.78175",614348195,L,37,183,53412,3002,2511 NC HIGHWAY 55, CARY, NC,27519
138,Match,Exact,"722 SHELLEY RD, RALEIGH, NC, 27609","-78.6476,35.851192",72496639,R,37,183,53716,2005,722 SHELLEY ROAD, RALEIGH, NC,27609
139,Match,Exact,"6119 CREEDMOOR RD, RALEIGH, NC, 27612","-78.6802,35.868526",647278527,L,37,183,53714,2005,6119 CREEDMOOR RD, RALEIGH, NC,27612
30,Match,Exact,"10225 CHAMBERS RD, RALEIGH, NC, 27603","-78.70956,35.63389",72607609,R,37,183,53110,2005,10225 CHAMBERS RD, RALEIGH, NC,27603
31,Match,Exact,"1930 MILBURNIE RD, RALEIGH, NC, 27610","-78.6156,35.787334",640234916,R,37,183,50600,1004,1930 MILBURNIE RD, RALEIGH, NC,27610
32,Match,Exact,"3925 BARWELL RD, RALEIGH, NC, 27610","-78.555176,35.732445",612816335,R,37,183,52806,4023,3925 BARWELL RD, RALEIGH, NC,27610
33,Match,Exact,"2110 TRAWICK RD, RALEIGH, NC, 27604","-78.5773,35.809116",72510479,R,37,183,52707,3030,2110 TRAWICK ROAD, RALEIGH, NC,27604
34,Match,Exact,"3591 TARHEEL CLUB RD, RALEIGH, NC, 27604","-78.526855,35.82528",639838573,L,37,183,54113,1004,3591 TARHEEL CLUB RD, RALEIGH, NC,27604
36,Match,Exact,"2414 KENNINGTON RD, RALEIGH, NC, 27610","-78.603485,35.792923",72508363,R,37,183,51900,3016,2414 KENNINGTON RD, RALEIGH, NC,27610
37,Match,Non_Exact,"509 S PERSON ST, RALEIGH, NC, 27601","-78.635155,35.77389",72508732,L,37,183,50100,1117,509 S PERSON ST, RALEIGH, NC,27601
39,Match,Exact,"504 NEWTON RD, RALEIGH, NC, 27615","-78.64062,35.87848",72532699,R,37,183,54006,1003,504 NEWTON ROAD, RALEIGH, NC,27615
260,Match,Exact,"1035 HALIFAX ST, RALEIGH, NC, 27604","-78.638275,35.793274",612816930,L,37,183,50400,1020,1035 HALIFAX STREET, RALEIGH, NC,27604
140,Match,Non_Exact,"616 HADLEY DR, RALEIGH, NC, 27610","-78.62784,35.752422",72663052,L,37,183,52101,4028,616 HADLEY ROAD, RALEIGH, NC,27610
261,Match,Exact,"300 ARBOR GREENE DR, GARNER, NC, 27529","-78.61739,35.653492",634822834,L,37,183,52903,1028,300 ARBOR GREENE DRIVE, GARNER, NC,27529
141,Match,Exact,"6523 JOHNSON POND RD, FUQUAY VARINA, NC, 27526","-78.75706,35.606583",647311629,R,37,183,53109,1021,6523 JOHNSON POND ROAD, FUQUAY-VARINA, NC,27526
262,Match,Exact,"201 POWHATAN DR, FUQUAY VARINA, NC, 27526","-78.80114,35.603127",72662244,R,37,183,53105,1004,201 POWHATAN DRIVE, FUQUAY-VARINA, NC,27526
142,Match,Exact,"1305 GLENWOOD AVE, RALEIGH, NC, 27605","-78.64648,35.7954",208347599,R,37,183,50300,1003,1305 GLENWOOD AVE, RALEIGH, NC,27605
263,Match,Exact,"3322 DUTCHMAN RD, RALEIGH, NC, 27610","-78.59113,35.74576",619294399,R,37,183,52803,3014,3322 DUTCHMAN RD, RALEIGH, NC,27610
143,Match,Non_Exact,"1323 CLAYMORE DR, GARNER, NC, 27529","-78.6257,35.690254",72649722,L,37,183,52801,3000,1323 CLAYMORE STREET, GARNER, NC,27529
264,Match,Exact,"610 NOTTINGHAM DR, CARY, NC, 27511","-78.741516,35.76771",639843477,L,37,183,53516,1005,610 NOTTINGHAM DRIVE, CARY, NC,27511
144,Match,Non_Exact,"3920 NEELEY ST, RALEIGH, NC, 27606","-78.6935,35.781593",72502841,R,37,183,52408,1002,3920 NEELY ST, RALEIGH, NC,27606
265,Match,Exact,"3116 BLUE RIDGE RD, RALEIGH, NC, 27612","-78.70285,35.821968",639512631,R,37,183,52504,1001,3116 BLUE RIDGE ROAD, RALEIGH, NC,27612
145,Match,Exact,"3250 FORESTVILLE RD, RALEIGH, NC, 27616","-78.51005,35.884106",621972078,L,37,183,54209,1066,3250 FORESTVILLE ROAD, RALEIGH, NC,27616
146,Match,Exact,"9920 SELLONA ST, RALEIGH, NC, 27617","-78.80889,35.900917",641563825,L,37,183,53610,2040,9920 SELLONA STREET, RALEIGH, NC,27617
267,Match,Exact,"1900 EDWIN DR, RALEIGH, NC, 27610","-78.61104,35.75312",72509871,R,37,183,52102,1026,1900 EDWIN DRIVE, RALEIGH, NC,27610
147,Match,Exact,"1450 TRYON MANOR DR, CARY, NC, 27518","-78.74613,35.74788",612830279,R,37,183,53003,1040,1450 TRYON MANOR DRIVE, CARY, NC,27518
268,Match,Non_Exact,"210 S ROGERS LN, RALEIGH, NC, 27610","-78.55031,35.773067",619260182,R,37,183,54106,2008,210 N ROGERS LANE, RALEIGH, NC,27610
148,Match,Exact,"610 LAKESTONE COMMONS AVE, FUQUAY VARINA, NC, 27526","-78.765915,35.591312",634097233,R,37,183,53108,2001,610 LAKESTONE COMMONS AVE, FUQUAY-VARINA, NC,27526
149,Match,Exact,"150 ROSEWOOD CENTRE DR, HOLLY SPRINGS, NC, 27540","-78.83412,35.678402",648795329,R,37,183,53420,1036,150 ROSEWOOD CENTRE DRIVE, HOLLY SPRINGS, NC,27540
40,Match,Exact,"4001 GREEN RD, RALEIGH, NC, 27604","-78.59205,35.837723",208353134,L,37,183,52704,1008,4001 GREEN ROAD, RALEIGH, NC,27604
41,Match,Exact,"1601 MARTIN LUTHER KING JR BLVD, RALEIGH, NC, 27610","-78.61427,35.769836",72618782,R,37,183,52002,4009,1601 MARTIN LUTHER KING JR BLVD, RALEIGH, NC,27610
42,Match,Exact,"123 BRIGHT BEGINNING WAY, CARY, NC, 27519","-78.87126,35.77575",612817800,L,37,183,53409,2012,123 BRIGHT BEGINNING WAY, CARY, NC,27519
45,Match,Exact,"800 CORPORATE CENTER DR, RALEIGH, NC, 27607","-78.739395,35.793186",641585208,L,37,183,52401,1066,800 CORPORATE CENTER DR, RALEIGH, NC,27607
46,Match,Exact,"101 ENDEAVOR WAY, CARY, NC, 27513","-78.77216,35.830948",208365655,L,37,183,53512,2021,101 ENDEAVOR WAY, CARY, NC,27513
47,Match,Non_Exact,"8516 LEAD MINE RD, RALEIGH, NC, 27615","-78.66297,35.898815",208376987,R,37,183,53723,1005,8516 OLD LEADMINE ROAD, RALEIGH, NC,27615
49,Match,Exact,"2500 HIGHSTONE RD, CARY, NC, 27519","-78.85168,35.788624",633686171,R,37,183,53425,2005,2500 HIGHSTONE ROAD, CARY, NC,27519
270,Match,Exact,"3202 NORTHAMPTON ST, RALEIGH, NC, 27609","-78.65129,35.825165",72502269,R,37,183,51700,3009,3202 NORTHAMPTON ST, RALEIGH, NC,27609
150,Match,Exact,"2000 CARRINGTON MILL BLVD, MORRISVILLE, NC, 27560","-78.839905,35.85891",641576230,R,37,183,53609,1059,2000 CARRINGTON MILL BLVD, MORRISVILLE, NC,27560
271,Match,Exact,"615 ROYAL ST, RALEIGH, NC, 27607","-78.68847,35.79125",72501771,L,37,183,51101,2006,615 ROYAL STREET, RALEIGH, NC,27607
272,Match,Exact,"3757 TRYON RIDGE DR, RALEIGH, NC, 27610","-78.58622,35.7435",619516361,L,37,183,52803,3014,3757 TRYON RIDGE DRIVE, RALEIGH, NC,27610
273,Match,Exact,"701 GRANITE FALLS BLVD, ROLESVILLE, NC, 27571","-78.45899,35.928493",641561977,L,37,183,54211,2097,701 GRANITE FALLS BLVD, ROLESVILLE, NC,27571
153,Match,Exact,"4325 TRYON RD, RALEIGH, NC, 27606","-78.71002,35.74982",639845101,L,37,183,53008,2005,4325 TRYON ROAD, RALEIGH, NC,27606
154,Match,Non_Exact,"7421 SIEMENS DR, WENDELL, NC, 27591","-78.38598,35.81481",72602458,L,37,183,54404,2009,7421 SIEMENS ROAD, WENDELL, NC,27591
156,Match,Exact,"7106 FORESTVILLE RD, KNIGHTDALE, NC, 27545","-78.48228,35.808495",639848824,L,37,183,54112,1035,7106 FORESTVILLE ROAD, KNIGHTDALE, NC,27545
277,Match,Non_Exact,"400 E EARP ST, HOLLY SPRINGS, NC, 27540","-78.82904,35.652996",72489784,L,37,183,53204,2002,400 EARP ST, HOLLY SPRINGS, NC,27540
157,Match,Non_Exact,"4605 OLD FAISON RD, KNIGHTDALE, NC, 27545","-78.50281,35.77522",638404333,L,37,183,54115,4011,4605 OLD FAISON ROAD, KNIGHTDALE, NC,27545
278,Match,Exact,"400 GATHERING PARK CIR, CARY, NC, 27519","-78.85656,35.82034",612829079,R,37,183,53603,1081,400 GATHERING PARK CIRCLE, CARY, NC,27519
158,Match,Exact,"3308 POOLE RD, RALEIGH, NC, 27610","-78.58301,35.770702",208361345,R,37,183,52806,2025,3308 POOLE RD SUITE 102, RALEIGH, NC,27610
279,Match,Exact,"201 HIGH HOUSE RD, CARY, NC, 27513","-78.79959,35.783455",639836008,R,37,183,53524,1015,201 HIGH HOUSE ROAD, CARY, NC,27513
159,Match,Exact,"6010 MCCRIMMON PKWY, MORRISVILLE, NC, 27560","-78.8492,35.838455",639840292,L,37,183,53608,1053,6010 MCCRIMMON PARKWAY, MORRISVILLE, NC,27560
50,Match,Exact,"800 WESTON PKWY, CARY, NC, 27513","-78.772804,35.829414",72567066,R,37,183,53512,2021,800 WESTON PARKWAY, CARY, NC,27513
51,Match,Exact,"8317 BRYAN RD, GARNER, NC, 27529","-78.59095,35.665382",646932915,R,37,183,52808,4036,8317 BRYAN ROAD, GARNER, NC,27529
52,Match,Exact,"5651 HONEYCUTT RD, HOLLY SPRINGS, NC, 27540","-78.844025,35.61991",649442623,R,37,183,53206,1041,5651 HONEYCUTT RD, HOLLY SPRINGS, NC,27540
53,Match,Exact,"825 COOPER RD, RALEIGH, NC, 27610","-78.5866,35.766514",72510811,L,37,183,52002,3002,825 COOPER ROAD, RALEIGH, NC,27610
54,Match,Exact,"1202 LYERLY LN, CARY, NC, 27511","-78.75578,35.772728",72499283,L,37,183,53516,2001,1202 LYERLY LANE, CARY, NC,27511
56,Match,Exact,"3801 MITCHELL MILL RD, RALEIGH, NC, 27616","-78.51609,35.88475",616701783,R,37,183,54209,1075,3801 MITCHELL MILL ROAD, RALEIGH, NC,27616
57,Match,Exact,"4204 JACQUELINE LN, RALEIGH, NC, 27616","-78.569244,35.882133",72580357,R,37,183,54014,3012,4204 JACQUELINE LANE, RALEIGH, NC,27616
58,Match,Exact,"614 GRIFFIS ST, CARY, NC, 27511","-78.788216,35.779682",72563871,L,37,183,53507,2014,614 GRIFFIS STREET, CARY, NC,27511
59,Match,Exact,"529 BETHLEHEM RD, KNIGHTDALE, NC, 27545","-78.490105,35.779297",647320532,R,37,183,54115,4006,529 BETHLEHEM ROAD, KNIGHTDALE, NC,27545
280,Match,Non_Exact,"2275 N GRASSLAND DR, FUQUAY VARINA, NC, 27526","-78.810036,35.61695",639836756,L,37,183,53205,1035,2275 GRASSLAND DRIVE, FUQUAY-VARINA, NC,27526
160,Match,Exact,"150 TOWNE VILLAGE DR, CARY, NC, 27513","-78.838264,35.7828",639408181,L,37,183,53425,1005,150 TOWNE VILLAGE DRIVE, CARY, NC,27513
161,Match,Exact,"7580 CARPENTER FIRE STATION RD, CARY, NC, 27519","-78.89803,35.822777",612827165,L,37,183,53601,3019,7580 CARPENTER FIRE STATION RD, CARY, NC,27519
162,Match,Exact,"821 BUCK JONES RD, RALEIGH, NC, 27606","-78.737885,35.77222",72652575,R,37,183,53008,1005,821 BUCK JONES RD, RALEIGH, NC,27606
284,Match,Exact,"100 ENDEAVOR WAY, CARY, NC, 27513","-78.772156,35.83096",208365655,R,37,183,53512,2013,100 ENDEAVOR WAY, CARY, NC,27513
164,Match,Exact,"100 E JUDD ST, ZEBULON, NC, 27597","-78.31874,35.831074",72643897,R,37,183,54302,2042,100 EAST JUDD STREET, ZEBULON, NC,27597
285,Match,Exact,"8000 GLENWOOD AVE, RALEIGH, NC, 27612","-78.72623,35.87264",639836711,R,37,183,53725,2027,8000 GLENWOOD AVENUE, RALEIGH, NC,27612
165,Match,Exact,"3129 POPLARWOOD CT, RALEIGH, NC, 27604","-78.6039,35.818207",72508103,L,37,183,52705,2015,3129 POPLARWOOD COURT, RALEIGH, NC,27604
286,Match,Exact,"5600 DURALEIGH RD, RALEIGH, NC, 27612","-78.711296,35.853348",72646586,L,37,183,52507,2007,5600 DURALEIGH RD, RALEIGH, NC,27612
166,Match,Exact,"300 EARNIE LN, HOLLY SPRINGS, NC, 27540","-78.84667,35.65614",72618423,L,37,183,53204,1005,300 EARNIE LANE, HOLLY SPRINGS, NC,27540
287,Match,Exact,"222 CAPCOM AVE, WAKE FOREST, NC, 27587","-78.52763,35.94936",72485258,L,37,183,54208,1047,222 CAPCOM AVENUE, WAKE FOREST, NC,27587
167,Match,Non_Exact,"2880 STATE HWY 55, CARY, NC, 27519","-78.870605,35.7915",641064187,L,37,183,53603,1085,2880 HIGHWAY 55, CARY, NC,27519
168,Match,Exact,"6560 TRYON RD, CARY, NC, 27518","-78.76506,35.742855",639850471,L,37,183,53506,4026,6560 TRYON ROAD, CARY, NC,27518
169,Match,Exact,"8050 CHAPEL HILL RD, CARY, NC, 27513","-78.77021,35.7934",614325435,L,37,183,53520,1014,8050 CHAPEL HILL RD, CARY, NC,27513
60,Match,Exact,"11109 POOLE RD, WENDELL, NC, 27591","-78.40942,35.766552",612818023,L,37,183,54402,3030,11109 POOLE ROAD, WENDELL, NC,27591
61,Match,Exact,"2215 W MILLBROOK RD, RALEIGH, NC, 27612","-78.681725,35.860363",612824960,L,37,183,52506,1000,2215 WEST MILLBROOK RD, RALEIGH, NC,27612
62,Match,Exact,"10200 STRICKLAND RD, RALEIGH, NC, 27615","-78.66527,35.90234",634987184,R,37,183,53807,1008,10200 STRICKLAND ROAD, RALEIGH, NC,27615
63,Match,Non_Exact,"3821 NW CARY PKWY, CARY, NC, 27513","-78.819534,35.792812",639843454,R,37,183,53523,2013,3821 NW CARY PARKWAY, CARY, NC,27513
64,Match,Non_Exact,"221 SIX FORKS RD, RALEIGH, NC, 27609","-78.628914,35.821445",208347739,L,37,183,52701,3011,221 EAST SIX FORKS ROAD, RALEIGH, NC,27609
65,Match,Exact,"1600 BENSON RD, GARNER, NC, 27529","-78.603836,35.684006",614340297,L,37,183,52808,3000,1600 BENSON ROAD, GARNER, NC,27529
66,Match,Exact,"2912 BRENTWOOD RD, RALEIGH, NC, 27604","-78.59618,35.819347",624727677,R,37,183,52705,1017,2912 BRENTWOOD ROAD, RALEIGH, NC,27604
67,Match,Exact,"4905 WESTERN BLVD, RALEIGH, NC, 27606","-78.70709,35.78614",72500894,L,37,183,52407,1016,4905 WESTERN BLVD, RALEIGH, NC,27606
68,Match,Exact,"350 W JONES ST, FUQUAY VARINA, NC, 27526","-78.80457,35.587334",72491273,R,37,183,53106,1025,350 WEST JONES STREET, FUQUAY-VARINA, NC,27526
69,Match,Exact,"5511 AVENT FERRY RD, RALEIGH, NC, 27606","-78.71724,35.7557",639245196,R,37,183,52301,1011,5511 AVENT FERRY ROAD, RALEIGH, NC,27606
290,Match,Exact,"202 TREYBROOKE DR, MORRISVILLE, NC, 27560","-78.837,35.83264",636581903,R,37,183,53607,1028,202 TREYBROOKE DR, MORRISVILLE, NC,27560
170,Match,Exact,"321 SPRING FOREST RD, RALEIGH, NC, 27609","-78.63147,35.86138",208346911,R,37,183,54001,1000,321 SPRING FOREST ROAD, RALEIGH, NC,27609
291,Match,Exact,"2625 GARNER RD, RALEIGH, NC, 27610","-78.63112,35.743412",72509375,L,37,183,52101,3005,2625 GARNER ROAD, RALEIGH, NC,27610
171,Match,Exact,"1590 DUNN RD, RALEIGH, NC, 27614","-78.58502,35.925774",647294403,L,37,183,54013,1017,1590 DUNN ROAD, RALEIGH, NC,27614
292,Match,Exact,"741 CHAPPELL DR, RALEIGH, NC, 27606","-78.68309,35.770206",72502954,L,37,183,52302,1009,741 CHAPPELL DRIVE, RALEIGH, NC,27606
172,Match,Exact,"101 OCEANA PL, CARY, NC, 27513","-78.80926,35.770905",72543546,R,37,183,53423,1001,101 OCEANA PLACE, CARY, NC,27513
293,Match,Exact,"1509 FOXWOOD DR, GARNER, NC, 27529","-78.627945,35.70884",72652796,L,37,183,52802,2007,1509 FOXWOOD DRIVE, GARNER, NC,27529
173,Match,Exact,"9301 LEESVILLE RD, RALEIGH, NC, 27613","-78.725555,35.899994",208370891,L,37,183,53711,1023,9301 LEESVILLE RD, RALEIGH, NC,27613
294,Match,Exact,"1417 CLIFTON ST, RALEIGH, NC, 27604","-78.62665,35.79711",72507792,L,37,183,50500,2013,1417 CLIFTON STREET, RALEIGH, NC,27604
174,Match,Exact,"1201 FRIENDSHIP CHAPEL RD, WAKE FOREST, NC, 27587","-78.497696,35.96442",637759304,L,37,183,54208,1004,1201 FRIENDSHIP CHAPEL RD, WAKE FOREST, NC,27587
295,Match,Exact,"5315 CREEDMOOR RD, RALEIGH, NC, 27612","-78.68057,35.85358",637585073,L,37,183,52506,1006,5315 CREEDMOOR ROAD, RALEIGH, NC,27612
175,Match,Exact,"131 KEYBRIDGE DR, MORRISVILLE, NC, 27560","-78.8219,35.819885",72641476,R,37,183,53522,2014,131 KEYBRIDGE DRIVE, MORRISVILLE, NC,27560
296,Match,Non_Exact,"300 SE CARY PKWY, CARY, NC, 27511","-78.77759,35.75793",72652110,R,37,183,53506,4007,300 SE CARY PARKWAY, CARY, NC,27511
176,Match,Exact,"2300 SPRING FOREST RD, RALEIGH, NC, 27615","-78.602066,35.86253",72595848,L,37,183,54004,3004,2300 SPRING FOREST RD, RALEIGH, NC,27615
297,Match,Exact,"7100 HOLLY SPRINGS RD, RALEIGH, NC, 27606","-78.74629,35.730022",72662627,R,37,183,53003,2010,7100 HOLLY SPRINGS ROAD, RALEIGH, NC,27606
177,Match,Exact,"1815 OLIVE CHAPEL RD, APEX, NC, 27502","-78.89737,35.734497",639839726,R,37,183,53413,1000,1815 OLIVE CHAPEL RD, APEX, NC,27502
298,Match,Exact,"10308 HOLLY SPRINGS RD, HOLLY SPRINGS, NC, 27540","-78.817505,35.655724",647291603,L,37,183,53203,2037,10308 HOLLY SPRINGS ROAD, HOLLY SPRINGS, NC,27540
178,Match,Exact,"10350 DURANT RD, RALEIGH, NC, 27614","-78.58643,35.90413",647312952,R,37,183,54013,4000,10350 DURANT RD, RALEIGH, NC,27614
299,Match,Exact,"735 ROCK QUARRY RD, RALEIGH, NC, 27610","-78.61937,35.77008",72509185,L,37,183,50700,3037,735 ROCK QUARRY ROAD, RALEIGH, NC,27610
179,Match,Exact,"932 HEATHER PARK DR, GARNER, NC, 27529","-78.61468,35.691536",624025094,L,37,183,52808,1021,932 HEATHER PARK DRIVE, GARNER, NC,27529
72,Match,Exact,"9420 SIX FORKS RD, RALEIGH, NC, 27615","-78.65243,35.907795",639847490,R,37,183,53808,2011,9420 SIX FORKS RD, RALEIGH, NC,27615
73,Match,Exact,"6215 LITCHFORD RD, RALEIGH, NC, 27615","-78.59836,35.86368",72615929,L,37,183,54012,3002,6215 LITCHFORD RD, RALEIGH, NC,27615
74,Match,Exact,"9725 FAYETTEVILLE RD, RALEIGH, NC, 27603","-78.71293,35.639187",208353661,R,37,183,53110,1020,9725 FAYETTEVILLE ROAD, RALEIGH, NC,27603
75,Match,Exact,"1201 KENT RD, RALEIGH, NC, 27606","-78.69381,35.782475",612823822,L,37,183,52408,1002,1201 KENT ROAD, RALEIGH, NC,27606
76,Match,Exact,"5501 AVENT FERRY RD, RALEIGH, NC, 27606","-78.717224,35.755737",639245196,R,37,183,52301,1011,5501 AVENT FERRY ROAD, RALEIGH, NC,27606
77,Match,Exact,"8408 STRICKLAND RD, RALEIGH, NC, 27615","-78.635826,35.89448",647286040,R,37,183,53808,2019,8408 STRICKLAND RD, RALEIGH, NC,27615
78,Match,Non_Exact,"3933 NEW BERN AVE, RALEIGH, NC, 27610","-78.573906,35.798492",647282783,R,37,183,52707,3035,3933 NEW BERN AVE, RALEIGH, NC,27610
180,Match,Exact,"3103 KELLEY AUSTIN DR, RALEIGH, NC, 27610","-78.58323,35.79201",639849999,L,37,183,54106,1035,3103 KELLEY AUSTIN DR, RALEIGH, NC,27610
182,Match,Non_Exact,"1118 SE MAYNARD RD, CARY, NC, 27511","-78.76419,35.781605",208369301,L,37,183,53517,1010,1118 E MAYNARD ROAD, CARY, NC,27511
183,Match,Exact,"9325 LEESVILLE RD, RALEIGH, NC, 27613","-78.72575,35.90047",208370891,L,37,183,53711,1023,9325 LEESVILLE ROAD, RALEIGH, NC,27613
184,Match,Exact,"223 MILLBROOK RD, RALEIGH, NC, 27609","-78.64391,35.856216",72595634,R,37,183,53716,2004,223 W MILLBROOK ROAD, RALEIGH, NC,27609
185,Match,Exact,"203 KILMAYNE DR, CARY, NC, 27511","-78.78464,35.76951",641585212,R,37,183,53519,3001,203 KILMAYNE DRIVE, CARY, NC,27511
186,Match,Exact,"250 CORNERSTONE DR, CARY, NC, 27519","-78.84866,35.788204",72588311,R,37,183,53425,2005,250 CORNERSTONE DRIVE, CARY, NC,27519
187,Match,Exact,"2300 BRIDGEPORT DR, RALEIGH, NC, 27615","-78.67823,35.889748",72520726,R,37,183,53722,1005,2300 BRIDGEPORT DRIVE, RALEIGH, NC,27615
188,Match,Exact,"200 FOREST DR, KNIGHTDALE, NC, 27545","-78.47814,35.800426",72512826,R,37,183,54112,1028,200 FOREST DR, KNIGHTDALE, NC,27545
189,Match,Exact,"1101 VANDORA SPRINGS RD, GARNER, NC, 27529","-78.62696,35.704277",72511438,R,37,183,52801,5004,1101 VANDORA SPRINGS RD, GARNER, NC,27529
80,Match,Exact,"450 CREECH RD, GARNER, NC, 27529","-78.6023,35.714985",647313370,R,37,183,52803,2019,450 CREECH ROAD, GARNER, NC,27529
82,Match,Exact,"1020 PENSELWOOD DR, RALEIGH, NC, 27604","-78.53535,35.801647",72605148,R,37,183,54113,1010,1020 PENSELWOOD DRIVE, RALEIGH, NC,27604
83,Match,Exact,"5018 DILLARD DR, RALEIGH, NC, 27606","-78.72324,35.750797",647314671,R,37,183,53008,1033,5018 DILLARD DRIVE, RALEIGH, NC,27606
84,Match,Exact,"1212 HERITAGE LINKS DR, WAKE FOREST, NC, 27587","-78.50332,35.947067",612827674,R,37,183,54211,2051,1212 HERITAGE LINKS DR, WAKE FOREST, NC,27587
85,Match,Exact,"6510 CHAPEL HILL RD, RALEIGH, NC, 27607","-78.73551,35.79001",639846264,L,37,183,52401,1066,6510 CHAPEL HILL ROAD, RALEIGH, NC,27607
86,Match,Exact,"10030 DURANT RD, RALEIGH, NC, 27614","-78.58168,35.9024",639841077,R,37,183,54013,4000,10030 DURANT ROAD, RALEIGH, NC,27614
87,Match,Exact,"2614 FAIRWAY DR, RALEIGH, NC, 27603","-78.66368,35.7435",650035950,R,37,183,54500,4009,2614 FAIRWAY DRIVE, RALEIGH, NC,27603
88,Match,Non_Exact,"228 W EDENTON ST, RALEIGH, NC, 27603","-78.642204,35.781322",72503617,R,37,183,50100,1038,228 W EDENTON STREET, RALEIGH, NC,27603
89,Match,Exact,"3601 HARDEN RD, RALEIGH, NC, 27607","-78.70102,35.81308",72638540,L,37,183,52504,1007,3601 HARDEN ROAD, RALEIGH, NC,27607
191,Match,Exact,"109 RIDGE ST, KNIGHTDALE, NC, 27545","-78.47873,35.78536",72513052,R,37,183,54108,3048,109 RIDGE ST, KNIGHTDALE, NC,27545
192,Match,Exact,"1020 TODD RD, KNIGHTDALE, NC, 27545","-78.44781,35.833157",208377456,R,37,183,54403,3007,1020 TODD ROAD, KNIGHTDALE, NC,27545
194,Match,Exact,"10741 FOREST PINES DR, RALEIGH, NC, 27614","-78.5447,35.94261",208346457,L,37,183,54208,1091,10741 FOREST PINES DRIVE, RALEIGH, NC,27614
195,Match,Exact,"2733 COMMUNITY DR, RALEIGH, NC, 27610","-78.596954,35.770638",72541327,L,37,183,52002,3000,2733 COMMUNITY DRIVE, RALEIGH, NC,27610
196,Match,Exact,"1413 AVERSBORO RD, GARNER, NC, 27529","-78.61674,35.693142",72534992,R,37,183,52808,1021,1413 AVERSBORO ROAD, GARNER, NC,27529
197,Match,Exact,"7601 SIX FORKS RD, RALEIGH, NC, 27615","-78.64632,35.883297",72496180,L,37,183,53723,2017,7601 SIX FORKS ROAD, RALEIGH, NC,27615
198,Match,Exact,"1420 HEDINGHAM BLVD, RALEIGH, NC, 27604","-78.55642,35.800068",612830456,L,37,183,54105,1024,1420 HEDINGHAM BOULEVARD, RALEIGH, NC,27604
199,Match,Exact,"955 W CHATHAM ST, CARY, NC, 27511","-78.80158,35.775616",639850883,R,37,183,53518,3000,955 WEST CHATHAM STREET, CARY, NC,27511
90,Match,Exact,"100 LUMPKIN ST, RALEIGH, NC, 27610","-78.61324,35.777344",639849911,R,37,183,52002,4007,100 LUMPKIN ST, RALEIGH, NC,27610
91,Match,Exact,"3800 HILLSBOROUGH ST, RALEIGH, NC, 27607","-78.68898,35.79439",72623120,R,37,183,52401,2000,3800 HILLSBOROUGH STREET, RALEIGH, NC,27607
92,Match,Exact,"4926 FAYETTEVILLE RD, RALEIGH, NC, 27603","-78.65722,35.71346",638677909,R,37,183,53009,1020,4926 FAYETTEVILLE ROAD, RALEIGH, NC,27603
93,Match,Exact,"316 COLONADES WAY, CARY, NC, 27518","-78.77843,35.739563",72568317,L,37,183,53004,1006,316 COLONADES WAY SUITE 101 C, CARY, NC,27518
94,Match,Exact,"316 COLONADES WAY, CARY, NC, 27518","-78.77843,35.739563",72568317,L,37,183,53004,1006,316 COLONADES WAY SUITE 107 C, CARY, NC,27518
96,Match,Exact,"1147 EXECUTIVE CIR, CARY, NC, 27511","-78.780945,35.766266",72577140,R,37,183,53506,3001,1147 EXECUTIVE CIRCLE, CARY, NC,27511
97,Match,Exact,"4309 TEN TEN RD, APEX, NC, 27539","-78.77367,35.69637",208357841,R,37,183,53005,3022,4309 TEN TEN ROAD, APEX, NC,27539
98,Match,Exact,"6840 FALLS OF NEUSE RD, RALEIGH, NC, 27615","-78.624886,35.879097",612815589,R,37,183,54012,1009,6840 FALLS OF NEUSE RD, RALEIGH, NC,27615
99,Match,Non_Exact,"120 W HARGETT ST, RALEIGH, NC, 27601","-78.640594,35.778316",72508480,R,37,183,50100,1070,120 WEST HARGETT, RALEIGH, NC,27601
300,Match,Exact,"6600 CREEDMOOR RD, RALEIGH, NC, 27613","-78.679,35.876728",647310346,L,37,183,53707,1015,6600 CREEDMOOR RD, RALEIGH, NC,27613
301,Match,Non_Exact,"1177 NW MAYNARD RD, CARY, NC, 27513","-78.81006,35.78249",635127241,L,37,183,53525,2002,1177 NW MAYNARD RD, CARY, NC,27513
302,Match,Exact,"4027 DAVIS DR, MORRISVILLE, NC, 27560","-78.85585,35.83596",72641342,L,37,183,53602,1051,4027 DAVIS DR, MORRISVILLE, NC,27560
303,Match,Exact,"1308 HERITAGE LINKS DR, WAKE FOREST, NC, 27587","-78.50161,35.945084",612821172,R,37,183,54211,2045,1308 HERITAGE LINKS DRIVE, WAKE FOREST, NC,27587
304,Match,Non_Exact,"655 OLD HONEYCUTT RD, FUQUAY VARINA, NC, 27526","-78.77437,35.588554",634093688,R,37,183,53107,1000,655 OLD HONEYCUTT ROAD, FUQUAY-VARINA, NC,27526
306,Match,Exact,"10550 LITTLE BRIER CREEK LN, RALEIGH, NC, 27617","-78.78961,35.912865",650038415,R,37,183,53610,1008,10550 LITTLE BRIER CREEK LN, RALEIGH, NC,27617
307,Match,Exact,"801 EARP ST, HOLLY SPRINGS, NC, 27540","-78.82037,35.65313",72639114,R,37,183,53202,1016,801 EARP STREET, HOLLY SPRINGS, NC,27540
308,Match,Exact,"903 OLIVE CHAPEL RD, APEX, NC, 27502","-78.86557,35.73612",639843021,L,37,183,53414,2000,903 OLIVE CHAPEL ROAD, APEX, NC,27502
310,Match,Exact,"1215 RIDGE RD, RALEIGH, NC, 27607","-78.68755,35.802994",72501698,L,37,183,51502,1003,1215 RIDGE RD, RALEIGH, NC,27607
311,Match,Exact,"2590 LAURA DUNCAN RD, CARY, NC, 27513","-78.82319,35.763878",639408483,L,37,183,53424,1026,2590 LAURA DUNCAN ROAD, CARY, NC,27513
312,Match,Exact,"7600 FALLS OF NEUSE RD, RALEIGH, NC, 27615","-78.62754,35.887627",208346216,R,37,183,54011,2010,7600 FALLS OF NEUSE ROAD, RALEIGH, NC,27615
313,Match,Non_Exact,"470 E WILLIAMS ST, APEX, NC, 27502","-78.84877,35.725292",639847309,L,37,183,53417,1000,470 W WILLIAMS ST, APEX, NC,27502
314,Match,Exact,"102 DAVIS GROVE CIR, CARY, NC, 27519","-78.84712,35.77587",612815918,R,37,183,53408,1024,102 DAVIS GROVE CIRCLE, CARY, NC,27519
316,Match,Non_Exact,"801 W HOLLY SPRINGS RD, HOLLY SPRINGS, NC, 27540","-78.844864,35.65646",72651631,L,37,183,53204,1005,801 HOLLY SPRINGS RD, HOLLY SPRINGS, NC,27540
318,Match,Exact,"560 EVENING STAR DR, APEX, NC, 27502","-78.89627,35.736633",618433099,L,37,183,53412,1008,560 EVENING STAR DRIVE, APEX, NC,27502
319,Match,Exact,"2185 DAVIS DR, CARY, NC, 27519","-78.848335,35.781925",208360000,L,37,183,53424,2006,2185 DAVIS DRIVE, CARY, NC,27519
200,Match,Exact,"9313 LEESVILLE RD, RALEIGH, NC, 27613","-78.725655,35.90023",208370891,L,37,183,53711,1023,9313 LEESVILLE ROAD, RALEIGH, NC,27613
201,Match,Exact,"10250 CHAPEL HILL RD, MORRISVILLE, NC, 27560","-78.82719,35.831104",647318127,R,37,183,53607,1000,10250 CHAPEL HILL ROAD, MORRISVILLE, NC,27560
322,Match,Exact,"1200 CORPORATE CHAPLAIN DR, WAKE FOREST, NC, 27587","-78.52472,35.965645",647298243,L,37,183,54206,1029,1200 CORPORATE CHAPLAIN DRIVE, WAKE FOREST, NC,27587
202,Match,Exact,"104 BAINES CT, CARY, NC, 27511","-78.78109,35.757824",208365525,R,37,183,53506,4011,104 BAINES COURT, CARY, NC,27511
323,Match,Exact,"1720 TRAWICK RD, RALEIGH, NC, 27604","-78.57775,35.79882",639846815,R,37,183,52707,3043,1720 TRAWICK RD, RALEIGH, NC,27604
203,Match,Exact,"1300 ELK FALLS RD, WENDELL, NC, 27591","-78.42612,35.758354",648795641,L,37,183,54402,3007,1300 ELK FALLS RD, WENDELL, NC,27591
324,Match,Exact,"334 S MAIN ST, FUQUAY VARINA, NC, 27526","-78.79977,35.581356",72490902,L,37,183,53107,3006,334 SOUTH MAIN STREET, FUQUAY-VARINA, NC,27526
204,Match,Exact,"6601 PLEASANT PINES DR, RALEIGH, NC, 27613","-78.713036,35.8697",635051081,R,37,183,53726,2003,6601 PLEASANT PINES DRIVE, RALEIGH, NC,27613
325,Match,Exact,"5617 SUNSET LAKE RD, HOLLY SPRINGS, NC, 27540","-78.789154,35.654335",647331696,R,37,183,53201,1047,5617 SUNSET LAKE RD, HOLLY SPRINGS, NC,27540
205,Match,Exact,"1411 AVERSBORO RD, GARNER, NC, 27529","-78.61674,35.693176",72534992,R,37,183,52808,1021,1411 AVERSBORO ROAD SUITE 303, GARNER, NC,27529
326,Match,Exact,"8400 FALLS OF NEUSE RD, RALEIGH, NC, 27615","-78.61911,35.89533",639846341,R,37,183,54011,2000,8400 FALLS OF NEUSE ROAD, RALEIGH, NC,27615
206,Match,Exact,"4008 MITCHELL MILL RD, RALEIGH, NC, 27616","-78.50876,35.882805",639244353,L,37,183,54110,3005,4008 MITCHELL MILL RD STE 100, RALEIGH, NC,27616
328,Match,Exact,"7209 STEPHEN BOYD CT, RALEIGH, NC, 27616","-78.55893,35.880096",72572326,R,37,183,54014,3005,7209 STEPHEN BOYD COURT, RALEIGH, NC,27616
208,Match,Exact,"1030 ROGERS LN, RALEIGH, NC, 27610","-78.549644,35.791515",612823909,R,37,183,54106,3013,1030 N ROGERS LANE SUITE 141, RALEIGH, NC,27610
209,Match,Exact,"907 N STATE ST, RALEIGH, NC, 27604","-78.62059,35.790936",72507888,L,37,183,50500,1014,907 NORTH STATE STREET, RALEIGH, NC,27604
330,Match,Exact,"3301 ROCK QUARRY RD, RALEIGH, NC, 27610","-78.59296,35.747555",208371388,L,37,183,52102,1039,3301-104 ROCK QUARRY RD, RALEIGH, NC,27610
210,Match,Exact,"307 BRIDGE ST, FUQUAY VARINA, NC, 27526","-78.808784,35.589977",72490753,L,37,183,53106,1013,307 BRIDGE ST, FUQUAY-VARINA, NC,27526
331,Match,Exact,"200 DANCERS POINTE LN, CARY, NC, 27518","-78.78711,35.718895",612831445,R,37,183,53405,3003,200 DANCERS POINTE LN, CARY, NC,27518
211,Match,Exact,"724 S MAIN ST, FUQUAY VARINA, NC, 27526","-78.80041,35.57576",72490976,L,37,183,53107,3015,724 SOUTH MAIN STREET, FUQUAY-VARINA, NC,27526
332,Match,Exact,"2209 CANDUN DR, APEX, NC, 27523","-78.83,35.759903",636581151,R,37,183,53424,1035,2209 CANDUN DRIVE, APEX, NC,27523
212,Match,Non_Exact,"309 HOLMAN DR, GARNER, NC, 27529","-78.601616,35.6986",72606024,L,37,183,52808,2017,309 HOLMAN STREET, GARNER, NC,27529
333,Match,Exact,"11100 FELLOWSHIP DR, RALEIGH, NC, 27617","-78.804146,35.919662",639419093,R,37,183,53610,1002,11100 FELLOWSHIP DRIVE, RALEIGH, NC,27617
213,Match,Exact,"3329 FORESTVILLE RD, RALEIGH, NC, 27616","-78.50974,35.88592",639237933,R,37,183,54210,2029,3329 FORESTVILLE RD, RALEIGH, NC,27616
334,Match,Non_Exact,"540 E CHATHAM ST, CARY, NC, 27511","-78.77034,35.790802",72577106,R,37,183,53517,2002,540 E CHATHAM ST, CARY, NC,27511
214,Match,Exact,"2906 BRENTWOOD RD, RALEIGH, NC, 27604","-78.59612,35.819256",624727677,R,37,183,52705,1017,2906 BRENTWOOD RD, RALEIGH, NC,27604
335,Match,Exact,"4815 SIX FORKS RD, RALEIGH, NC, 27609","-78.64433,35.847553",72496649,L,37,183,52601,1015,4815 SIX FORKS ROAD, RALEIGH, NC,27609
216,Match,Exact,"2800 SOURWOOD ST, RALEIGH, NC, 27610","-78.60843,35.740864",72509997,L,37,183,52102,2000,2800 SOURWOOD STREET, RALEIGH, NC,27610
337,Match,Exact,"3330 IDLEWOOD VILLAGE DR, RALEIGH, NC, 27610","-78.617065,35.73601",648795593,R,37,183,52101,1002,3330 IDLEWOOD VILLAGE DR, RALEIGH, NC,27610
217,Match,Non_Exact,"2801 S WILMINGTON ST, RALEIGH, NC, 27603","-78.64664,35.74383",72650221,L,37,183,54500,2028,2801 S WILIMINGTON ST, RALEIGH, NC,27603
338,Match,Non_Exact,"8808 OLD STAGE RD, RALEIGH, NC, 27603","-78.66645,35.65516",208370454,L,37,183,53110,1000,8808 OLD STAGE RD, RALEIGH, NC,27603
218,Match,Exact,"4210 SAINT JAMES CHURCH RD, RALEIGH, NC, 27604","-78.57289,35.8381",72619361,L,37,183,52707,1001,4210 SAINT JAMES CHURCH RD, RALEIGH, NC,27604
339,Match,Exact,"608 ROYAL ST, RALEIGH, NC, 27607","-78.68848,35.791306",72501771,R,37,183,51101,2005,608 ROYAL STREET, RALEIGH, NC,27607
219,Match,Exact,"4206 SAINT JAMES CHURCH RD, RALEIGH, NC, 27604","-78.572876,35.838078",72619361,L,37,183,52707,1001,4206 SAINT JAMES CHURCH RD, RALEIGH, NC,27604
340,Match,Exact,"2100 S MAIN ST, WAKE FOREST, NC, 27587","-78.533005,35.948853",647314503,L,37,183,54206,1029,2100 SOUTH MAIN STREET, WAKE FOREST, NC,27587
220,Match,Non_Exact,"2117 PINEY PLAINS RD, CARY, NC, 27518","-78.75162,35.75224",648795529,R,37,183,53003,1040,2117 PINEY PLAINS ROAD, CARY, NC,27511
100,Match,Exact,"100 LAWSON RIDGE RD, KNIGHTDALE, NC, 27545","-78.48025,35.807697",634094869,L,37,183,54112,1037,100 LAWSON RIDGE ROAD, KNIGHTDALE, NC,27545
221,Match,Exact,"314 BAINBRIDGE CIR, GARNER, NC, 27529","-78.59835,35.688354",72512006,R,37,183,52808,2038,314 BAINBRIDGE CIRCLE, GARNER, NC,27529
342,Match,Exact,"1941 HERITAGE BRANCH RD, WAKE FOREST, NC, 27587","-78.519264,35.948456",612827812,L,37,183,54208,1041,1941 HERITAGE BRANCH ROAD, WAKE FOREST, NC,27587
101,Match,Exact,"2823 SANDERFORD RD, RALEIGH, NC, 27610","-78.612785,35.740192",72509973,L,37,183,52102,2000,2823 SANDERFORD ROAD, RALEIGH, NC,27610
222,Match,Exact,"9003 WESTON PKWY, CARY, NC, 27513","-78.798805,35.82799",612822402,R,37,183,53512,1002,9003 WESTON PARKWAY, CARY, NC,27513
343,Match,Exact,"231 CAPCOM AVE, WAKE FOREST, NC, 27587","-78.526855,35.948624",72485258,R,37,183,54208,1047,231 CAPCOM AVENUE SUITE 180, WAKE FOREST, NC,27587
102,Match,Exact,"3311 CARL SANDBURG CT, RALEIGH, NC, 27610","-78.58174,35.780197",634981830,L,37,183,52001,1000,3311 CARL SANDBURG COURT, RALEIGH, NC,27610
223,Match,Exact,"1024 LYNN RD, RALEIGH, NC, 27612","-78.65442,35.869926",633686709,R,37,183,53707,2020,1024 LYNN ROAD, RALEIGH, NC,27612
344,Match,Exact,"2700 WAKEFIELD PINES DR, RALEIGH, NC, 27614","-78.56092,35.944206",636581038,R,37,183,54207,1108,2700 WAKEFIELD PINES DRIVE, RALEIGH, NC,27614
103,Match,Non_Exact,"301 N WOODROW ST, FUQUAY VARINA, NC, 27526","-78.79445,35.587856",647324909,L,37,183,53107,2005,301 N WOODROW STREET, FUQUAY-VARINA, NC,27526
345,Match,Exact,"8921 PIPPIN RD, ZEBULON, NC, 27597","-78.333984,35.853764",612816459,L,37,183,54301,3013,8921 PIPPIN ROAD, ZEBULON, NC,27597
104,Match,Exact,"901 AVERSBORO RD, GARNER, NC, 27529","-78.617676,35.70058",72606639,R,37,183,52808,1009,901 AVERSBORO ROAD, GARNER, NC,27529
225,Match,Exact,"12401 STRICKLAND RD, RALEIGH, NC, 27613","-78.704216,35.906654",644506610,R,37,183,53711,1013,12401 STRICKLAND ROAD, RALEIGH, NC,27613
105,Match,Exact,"2235 GARNER RD, RALEIGH, NC, 27610","-78.6313,35.75005",612818251,L,37,183,52101,3005,2235 GARNER ROAD, RALEIGH, NC,27610
226,Match,Exact,"2721 RENFROW RD, RALEIGH, NC, 27603","-78.64637,35.746964",72504031,R,37,183,54500,2019,2721 RENFROW ROAD, RALEIGH, NC,27603
347,Match,Exact,"3308 POOLE RD, RALEIGH, NC, 27610","-78.58301,35.770702",208361345,R,37,183,52806,2025,3308 POOLE RD SUITE 108, RALEIGH, NC,27610
106,Match,Exact,"1521 N MAIN ST, FUQUAY VARINA, NC, 27526","-78.765816,35.594803",639840930,L,37,183,53109,1078,1521 NORTH MAIN STREET, FUQUAY-VARINA, NC,27526
227,Match,Non_Exact,"1108 HADLEY DR, RALEIGH, NC, 27610","-78.61896,35.75118",208374899,R,37,183,52101,4033,1108 HADLEY ROAD, RALEIGH, NC,27610
107,Match,Exact,"7441 WHITE OAK RD, GARNER, NC, 27529","-78.579895,35.684",642086405,R,37,183,52808,4017,7441 WHITE OAK RD, GARNER, NC,27529
228,Match,Exact,"900 TRAILWOOD DR, RALEIGH, NC, 27606","-78.69114,35.768745",72502932,R,37,183,52301,3000,900 TRAILWOOD DRIVE, RALEIGH, NC,27606
108,Match,Exact,"7441 WHITE OAK RD, GARNER, NC, 27529","-78.579895,35.684",642086405,R,37,183,52808,4017,7441 WHITE OAK RD, GARNER, NC,27529
229,Match,Non_Exact,"1520 E MILLBROOK RD, RALEIGH, NC, 27609","-78.611176,35.85019",208361131,R,37,183,52701,2003,1520 E MILLBROOK RD, RALEIGH, NC,27609
109,Match,Non_Exact,"312 S MAIN ST, HOLLY SPRINGS, NC, 27540","-78.83364,35.648056",72489812,L,37,183,53204,1021,312 N MAIN STREET, HOLLY SPRINGS, NC,27540
350,No_Match,,,,,,,,,,9565 FLATROCK PARK DRIVE, KNIGHTDALE, NC,27545
110,No_Match,,,,,,,,,,821 S NEW HOPE RD SUITE 105, RALEIGH, NC,27610
352,No_Match,,,,,,,,,,3000 ROCK QUARRY ROAD, RALEIGH, NC,27610
353,No_Match,,,,,,,,,,5109 OAK PARK DR, RALEIGH, NC,27612
235,No_Match,,,,,,,,,,110 TALS ROCK WAY, CARY, NC,27519
13,No_Match,,,,,,,,,,7240 O'KELLY CHAPEL ROAD, CARY, NC,27519
14,No_Match,,,,,,,,,,2904 BARWELL ROAD, RALEIGH, NC,27610
15,No_Match,,,,,,,,,,11555 GREEN LEVEL CHURCH RD, CARY, NC,27519
126,No_Match,,,,,,,,,,1180 HOLLY SPRINGS ROAD, HOLLY SPRINGS, NC,27540
247,No_Match,,,,,,,,,,2100 NORTH HILLS DR, RALEIGH, NC,27612
7,No_Match,,,,,,,,,,1216 CROSSLINK ROAD, RALEIGH, NC,27610
249,No_Match,,,,,,,,,,11151 SALEM GLEN LANE, RALEIGH, NC,27617
29,No_Match,,,,,,,,,,3404 DAVIS DR, CARY, NC,27519
133,No_Match,,,,,,,,,,99 N SALISBURY STREET, RALEIGH, NC,27603
35,No_Match,,,,,,,,,,2601 ST PAULS SQUARE, RALEIGH, NC,27614
266,No_Match,,,,,,,,,,4905 BURLINGTON MILLS RD, ROLESVILLE, NC,27571
269,No_Match,,,,,,,,,,6600 ROGERS RD, ROLESVILLE, NC,27571
43,No_Match,,,,,,,,,,7909 CREEDMOOR RD, RALEIGH, NC,27613
44,No_Match,,,,,,,,,,5000 DAVIS DR, RESEARCH TRIANGLE, NC,27709
48,No_Match,,,,,,,,,,2051 SHEPHERD VINEYARD DRIVE, APEX, NC,27502
151,No_Match,,,,,,,,,,7350 O'KELLY CHAPEL RD, CARY, NC,27519
152,No_Match,,,,,,,,,,5616 FOX ROAD, RALEIGH, NC,27616
274,No_Match,,,,,,,,,,200 MATRIX DRIVE BLDG I, CARY, NC,27513
275,No_Match,,,,,,,,,,400 MATRIX DRIVE, CARY, NC,27513
155,No_Match,,,,,,,,,,1020 JONES DAIRY RD, WAKE FOREST, NC,27587
55,No_Match,,,,,,,,,,2108 N NEW HOPE ROAD, RALEIGH, NC,27604
281,No_Match,,,,,,,,,,812 NEW BERN AVE, RALEIGH, NC,27610
282,No_Match,,,,,,,,,,1436 ROCK QUARRY RD, RALEIGH, NC,27610
283,No_Match,,,,,,,,,,1436 ROCK QUARRY RD, RALEIGH, NC,27610
163,No_Match,,,,,,,,,,2080 EAST WILLIAMS STREET, APEX, NC,27539
288,No_Match,,,,,,,,,,3407 N NEW HOPE ROAD, RALEIGH, NC,27604
289,No_Match,,,,,,,,,,4690 WENDELL BLVD, WENDELL, NC,27591
70,No_Match,,,,,,,,,,7420 MCCRIMMON PARKWAY, CARY, NC,27519
71,No_Match,,,,,,,,,,13401 LEESVILLE CHURCH RD, RALEIGH, NC,27617
79,No_Match,,,,,,,,,,1201 OLD RALEIGH RD, APEX, NC,27502
181,No_Match,,,,,,,,,,2220 WENDELL FALLS PARKWAY, WENDELL, NC,27591
190,No_Match,,,,,,,,,,7900 TEN-TEN ROAD, RALEIGH, NC,27603
193,No_Match,,,,,,,,,,710 LIGHTRAIL DRIVE, KNIGHTDALE, NC,27545
95,No_Match,,,,,,,,,,1001 OLIVE CHAPEL ROAD, APEX, NC,27502
?Index,No_Match,,,,,,,,,,Contact Information, City, State, ZIP
305,No_Match,,,,,,,,,,3701 GREEN LEVEL RD WEST, APEX, NC,27523
309,No_Match,,,,,,,,,,2385 KILDAIRE FARM RD, CARY, NC,27518
315,No_Match,,,,,,,,,,5010 FORT SUMTER ROAD, RALEIGH, NC,27606
317,No_Match,,,,,,,,,,8213 QUOIN WAY, RALEIGH, NC,27613
320,No_Match,,,,,,,,,,2020 MARQUEE LANE, FUQUAY-VARINA, NC,27526
321,No_Match,,,,,,,,,,8101 TARGET SIDE DRIVE, RALEIGH, NC,27616
327,No_Match,,,,,,,,,,2489 WENDELL BLVD, WENDELL, NC,27591
329,No_Match,,,,,,,,,,1005 A-BIG OAK COURT, KNIGHTDALE, NC,27545
215,No_Match,,,,,,,,,,3217 FORESTVILLE ROAD, RALEIGH, NC,27616
224,No_Match,,,,,,,,,,1601 LYNN ROAD, RALEIGH, NC,27612
346,No_Match,,,,,,,,,,2600 SUNNYBROOK RD, RALEIGH, NC,27610
348,No_Match,,,,,,,,,,3400 POOLE RD, RALEIGH, NC,27610
17,Tie,,,,,,,,,,432 E WILLIAMS STREET, APEX, NC,27502
123,Tie,,,,,,,,,,148 E VANCE STREET, ZEBULON, NC,27597
259,Tie,,,,,,,,,,501 S BOYLAN AVENUE, RALEIGH, NC,27603
38,Tie,,,,,,,,,,322 E CABARRUS ST, RALEIGH, NC,27601
276,Tie,,,,,,,,,,317 E LENOIR STREET, RALEIGH, NC,27601
81,Tie,,,,,,,,,,568 E LENOIR STREET SUITE 115, RALEIGH, NC,27601
207,Tie,,,,,,,,,,568 E LENOIR STREET SUITE 204, RALEIGH, NC,27601
336,Tie,,,,,,,,,,523 N MAIN STREET, FUQUAY-VARINA, NC,27526
341,Tie,,,,,,,,,,136 W SYCAMORE AVE, WAKE FOREST, NC,27587
349,Tie,,,,,,,,,,313 S E MAYNARD ROAD, CARY, NC,27511
