Index,Contact Information,,City,State,ZIP,Phone,Facility Name,License
1,4020 MITCHELL MILL RD,,RALEIGH,NC,27616,(919) 696-1234,A BRIGHT CHILD LEARNING CENTER,Three Star Center License
2,838 BELMONT DRIVE,,RALEIGH,NC,27610,(919) 671-8125,A KIND GARDEN,Five Star Center License
3,3701-130 SUMNER BLVD,,RALEIGH,NC,27616,(919) 877-0101,A MOTHER'S TOUCH CHILD DEVELOPMENT CENTER,Four Star Center License
4,5429 KISSIMMEE LANE,,RALEIGH,NC,27616,(919) 877-0101,"A MOTHER'S TOUCH CHILD DEVELOPMENT CENTER, INC",Three Star Center License
5,8448 HAINES CREEK LANE,,RALEIGH,NC,27616,(919) 877-0101,"A MOTHER'S TOUCH CHILD DEVELOPMENT CENTER, INC.",Four Star Center License
6,509 MADISON AVE,,CARY,NC,27513,(919) 465-7242,"A PLACE TO GROW IN CARY, LLC",Three Star Center License
7,1216 CROSSLINK ROAD,,RALEIGH,NC,27610,(919) 833-9330,A SAFE PLACE CHILD ENRICHMENT CENTER,Five Star Center License
8,201 CLARENDON CRESCENT,,RALEIGH,NC,27610,(919) 899-3536,A SAFE PLACE EARLY LEARNING CENTER,Five Star Center License
9,55 LILES DEAN RD,,WENDELL,NC,27591,(919) 365-0810,"ABC LAND, INC II",Five Star Center License
10,610 RAYMOND DRIVE,,WENDELL,NC,27591,(919) 365-3212,"ABC LAND, INC.",Five Star Center License
11,916 ROCK QUARRY RD SUITE 101,,RALEIGH,NC,27610,(919) 833-1640,ACADEMICALLY BASED CHILD,Five Star Center License
12,6410 MCCRIMMON PARKWAY,,MORRISVILLE,NC,27560,(919) 467-3339,ALL STARZ CHILDREN'S ACADEMY,Five Star Center License
13,7240 O'KELLY CHAPEL ROAD,,CARY,NC,27519,(919) 237-2445,ALL STARZ CHILDREN'S ACADEMY,Five Star Center License
14,2904 BARWELL ROAD,,RALEIGH,NC,27610,(919) 250-3688,ALMA'S CHILDCARE CENTER,Four Star Center License
15,11555 GREEN LEVEL CHURCH RD,,CARY,NC,27519,(919) 544-2474,ALSTON RIDGE ELEMENTARY,Four Star Center License
16,7229 PILGRIM ROAD,,RALEIGH,NC,27616,(919) 696-1234,ANNE'S CHILDCARE INC.,Four Star Center License
17,432 E WILLIAMS STREET,,APEX,NC,27502,(919) 267-8557,"APEX PEAK SCHOOLS, INC.",One Star Center License
18,4604 POOLE RD,,RALEIGH,NC,27610,(919) 255-3434,APPLETREE CHILD DEVELOPMENT CENTER,Five Star Center License
19,104 CLARENDON CRESCENT,,RALEIGH,NC,27610,(919) 821-7705,APPLETREE DAY CARE,Five Star Center License
20,5105 OLD POOLE RD,,RALEIGH,NC,27610,(919) 231-3949,APPLETREE DAY CARE #3,Five Star Center License
21,2217 NEW BERN AVE,,RALEIGH,NC,27610,(919) 821-7757,APPLETREE DAY CARE II,Five Star Center License
22,4400 OLD POOLE ROAD,,RALEIGH,NC,27610,(919) 830-1948,ARROW CHRISTIAN PRESCHOOL,Four Star Center License
23,6612 CREEDMOOR ROAD,,RALEIGH,NC, 27613-3644,(919) 846-4773,ASBURY PRESCHOOL,Five Star Center License
24,916 OLD HONEYCUTT RD,,FUQUAY-VARINA,NC,27526,(919) 762-0605,ASHEBRIDGE CHILDREN'S ACADEMY,Five Star Center License
25,3901 KILDAIRE FARM ROAD,,APEX,NC,27539,(919) 303-7767,ASHEBRIDGE CHILDREN'S ACADEMY OF APEX,Five Star Center License
26,1605 AVERSBORO RD,,GARNER,NC,27529,(919) 662-2325,AVERSBORO ELEMENTARY SCHOOL,Four Star Center License
27,1701 AVERSBORO ROAD,,GARNER,NC,27529,(919) 395-4136,"AVERSBORO ROAD CHILD CARE CENTER, LLC",Four Star Center License
28,9425 BAILEYWICK ROAD,,RALEIGH,NC,27615,(919) 518-0090,BAILEYWICK ELEMENTARY,Four Star Center License
29,3404 DAVIS DR,,CARY,NC,27519,(919) 694-5777,BAMBINO'S PLAYSCHOOL,Five Star Center License
30,10225 CHAMBERS RD,,RALEIGH,NC,27603,(919) 694-8752,BANKS ROAD ELEMENTARY,Five Star Center License
31,1930 MILBURNIE RD,,RALEIGH,NC,27610,(919) 803-7308,BARBARA H. CURTIS CENTER,Five Star Center License
32,3925 BARWELL RD,,RALEIGH,NC,27610,(919) 661-5405,BARWELL ROAD ELEMENTARY,Four Star Center License
33,2110 TRAWICK ROAD,,RALEIGH,NC,27604,(919) 872-2215,BEACON BAPTIST CHURCH DAYCARE,GS 110-106
34,3591 TARHEEL CLUB RD,,RALEIGH,NC,27604,(919) 694-0222,BEAVERDAM ELEMENTARY,Five Star Center License
35,2601 ST PAULS SQUARE,,RALEIGH,NC,27614,(919) 803-1338,BEDFORD SCHOOL OF DISCOVERY,Five Star Center License
36,2414 KENNINGTON RD,,RALEIGH,NC,27610,(919) 916-5008,BEFORE THE BELL PRESCHOOL,Four Star Center License
37,509 S PERSON ST,,RALEIGH,NC,27601,(919) 856-2273,BEGINNING & BEYOND CHILD DEVELOPMENT CENTER #2,Four Star Center License
38,322 E CABARRUS ST,,RALEIGH,NC,27601,(919) 856-2273,"BEGINNING & BEYOND CHILD DEVELOPMENT CENTER, INC",Four Star Center License
39,504 NEWTON ROAD,,RALEIGH,NC, 27615-6212,(919) 870-6477,"BETH MEYER PRESCHOOL, INC.",Five Star Center License
40,4001 GREEN ROAD,,RALEIGH,NC,27604,(919) 872-6004,BRENTWOOD CHILD CARE - THE FOUNDATION OF KNOWLEDGE,Three Star Center License
41,1601 MARTIN LUTHER KING JR BLVD,,RALEIGH,NC,27610,(919) 696-3146,BRIDGE ACADEMY,Five Star Center License
42,123 BRIGHT BEGINNING WAY,,CARY,NC,27519,(919) 367-0009,BRIGHT BEGINNINGS CHILD DEVELOPMENT CENTER,Five Star Center License
43,7909 CREEDMOOR RD,,RALEIGH,NC,27613,(919) 844-1366,BRIGHT HAVEN ACADEMY,Three Star Center License
44,5000 DAVIS DR,,RESEARCH TRIANGLE,NC,27709,(919) 213-4552,BRIGHT HORIZONS AT BIOGEN RTP,Five Star Center License
45,800 CORPORATE CENTER DR,,RALEIGH,NC,27607,(919) 852-0509,BRIGHT HORIZONS AT RALEIGH CORPORATE CENTER,Five Star Center License
46,101 ENDEAVOR WAY,,CARY,NC,27513,(919) 678-1010,BRIGHT HORIZONS CHILDREN'S CENTER,Five Star Center License
47,8516 OLD LEADMINE ROAD,,RALEIGH,NC, 27615-2933,(919) 845-7180,BRIGHT HORIZONS CHILDREN'S CENTER AT THE FORUM,Five Star Center License
48,2051 SHEPHERD VINEYARD DRIVE,,APEX,NC,27502,(919) 363-4556,BRIGHT HORIZONS CHILDREN'S CTR'S AT SHEPHERD'S VI,Five Star Center License
49,2500 HIGHSTONE ROAD,,CARY,NC,27519,(919) 380-2003,BRIGHT HORIZONS CLUBHOUSE AT WEST CARY,Five Star Center License
50,800 WESTON PARKWAY,,CARY,NC,27513,(919) 678-1010,BRIGHT HORIZONS FAMILY SOLUTIONS,Five Star Center License
51,8317 BRYAN ROAD,,GARNER,NC,27529,(919) 694-7844,BRYAN ROAD ELEMENTARY,Five Star Center License
52,5651 HONEYCUTT RD,,HOLLY SPRINGS,NC,27540,(919) 694-8970,BUCKHORN CREEK ELEMENTARY,Four Star Center License
53,825 COOPER ROAD,,RALEIGH,NC,27610,(919) 250-4750,BUGG ELEMENTARY,One Star Center License
54,1202 LYERLY LANE,,CARY,NC,27511,(919) 481-0014,BUSY BEE PRESCHOOL,Three Star Center License
55,2108 N NEW HOPE ROAD,,RALEIGH,NC,27604,(919) 231-0893,BUSY BEES LEARNING CENTER II,Three Star Center License
56,3801 MITCHELL MILL ROAD,,RALEIGH,NC, 27616-8566,(919) 266-5717,BUTTONS AND BOWS #1,Five Star Center License
57,4204 JACQUELINE LANE,,RALEIGH,NC, 27616-0933,(919) 954-8811,BUTTONS AND BOWS PRESCHOOL II,Five Star Center License
58,614 GRIFFIS STREET,,CARY,NC,27511,(919) 469-2229,"CARY PRESBYTERIAN CHURCH, INC.",GS 110-106
59,529 BETHLEHEM ROAD,,KNIGHTDALE,NC,27545,(919) 266-6220,"CATHY LEE CHILD DEVELOPMENT CENTER, INC.",Three Star Center License
60,11109 POOLE ROAD,,WENDELL,NC,27591,(919) 365-7714,CENTRAL BAPTIST CHURCH PRESCHOOL,GS 110-106
61,2215 WEST MILLBROOK RD,,RALEIGH,NC,27612,(919) 787-7568,CHESTERBROOK ACADEMY,Four Star Center License
62,10200 STRICKLAND ROAD,,RALEIGH,NC, 27615-1859,(919) 847-3120,CHESTERBROOK ACADEMY,Three Star Center License
63,3821 NW CARY PARKWAY,,CARY,NC,27513,(919) 319-9400,CHESTERBROOK ACADEMY,Five Star Center License
64,221 EAST SIX FORKS ROAD,,RALEIGH,NC, 27609-7725,(919) 277-2017,CHILDCARE NETWORK # 59,Five Star Center License
65,1600 BENSON ROAD,,GARNER,NC,27529,(919) 772-5437,CHILDCARE NETWORK #236,Five Star Center License
66,2912 BRENTWOOD ROAD,,RALEIGH,NC, 27604-2422,(919) 872-2354,CHILDCARE NETWORK #60,Five Star Center License
67,4905 WESTERN BLVD,,RALEIGH,NC,27606,(919) 854-2652,CHILDCARE NETWORK #61,Five Star Center License
68,350 WEST JONES STREET,,FUQUAY-VARINA,NC,27526,(919) 557-1262,CHILDCARE NETWORK-FUQUAY VARINA ELC,Five Star Center License
69,5511 AVENT FERRY ROAD,,RALEIGH,NC,27606,(919) 851-0630,CHILDREN'S DISCOVERY CENTER,Three Star Center License
70,7420 MCCRIMMON PARKWAY,,CARY,NC,27519,(919) 388-0470,CHILDRENS LIGHTHOUSE LEARNING CENTER,Temporary License
71,13401 LEESVILLE CHURCH RD,,RALEIGH,NC,27617,(919) 758-8574,CHILDRENS LIGHTHOUSE LEARNING CENTER,Five Star Center License
72,9420 SIX FORKS RD,,RALEIGH,NC, 27615-1929,(919) 844-8788,CHILDTIME CHILDCARE #2013,Four Star Center License
73,6215 LITCHFORD RD,,RALEIGH,NC,27615,(919) 878-9862,"CHILDWORKS, INC.",Four Star Center License
74,9725 FAYETTEVILLE ROAD,,RALEIGH,NC,27603,(919) 557-6776,CORNERSTONE LEARNING CENTER,GS 110-106
75,1201 KENT ROAD,,RALEIGH,NC,27606,(919) 851-4054,COUNTRY DAY MONTESSORI SCHOOL OF RALEIGH,Three Star Center License
76,5501 AVENT FERRY ROAD,,RALEIGH,NC,27606,(919) 859-2828,COUNTRY SUNSHINE CHILDREN'S CENTER,Four Star Center License
77,8408 STRICKLAND RD,,RALEIGH,NC,27615,(919) 841-5707,CREATIVE KIDZ ACADEMY,Three Star Center License
78,3933 NEW BERN AVE,,RALEIGH,NC,27610,(919) 594-1700,CREATIVE LEARNING CENTER,Four Star Center License
79,1201 OLD RALEIGH RD,,APEX,NC,27502,(919) 355-4944,CREATIVE SCHOOLS OF APEX,Five Star Center License
80,450 CREECH ROAD,,GARNER,NC,27529,(919) 662-2359,CREECH ROAD ELEMENTARY,Five Star Center License
81,568 E LENOIR STREET SUITE 115,,RALEIGH,NC,27601,(919) 857-3833,CROSBY HEAD START,Five Star Center License
82,1020 PENSELWOOD DRIVE,,RALEIGH,NC,27604,(919) 266-2571,DENISE'S LEARN AND PLAY,Three Star Center License
83,5018 DILLARD DRIVE,,RALEIGH,NC,27606,(919) 233-4200,DILLARD DRIVE ELEMENTARY,Five Star Center License
84,1212 HERITAGE LINKS DR,,WAKE FOREST,NC,27587,(919) 556-8001,DISCOVERY POINT HERITAGE,Five Star Center License
85,6510 CHAPEL HILL ROAD,,RALEIGH,NC,27607,(919) 961-9812,DOROTHY BABB ACADEMY,Four Star Center License
86,10030 DURANT ROAD,,RALEIGH,NC, 27614-9370,(919) 845-0733,DURANT ROAD PRESCHOOL,Five Star Center License
87,2614 FAIRWAY DRIVE,,RALEIGH,NC,27603,(919) 772-4109,"EARLY PRESCHOOL AND LEARNING CENTER, L.L.C.",Five Star Center License
88,228 W EDENTON STREET,,RALEIGH,NC,27603,(919) 832-2029,EDENTON STREET UNITED METHODIST CHILD DEV. CTR.,Five Star Center License
89,3601 HARDEN ROAD,,RALEIGH,NC,27607,(919) 755-1150,EDUCATIONAL JOURNEYS,One Star Center License
90,100 LUMPKIN ST,,RALEIGH,NC,27610,(919) 836-8985,ELLA'S PRIVATE DAY CARE,Three Star Center License
91,3800 HILLSBOROUGH STREET,,RALEIGH,NC,27607,(919) 760-8628,ELLEN BREWER INFANT- TODDLER LAB HOME,Five Star Center License
92,4926 FAYETTEVILLE ROAD,,RALEIGH,NC,27603,(919) 779-0316,ERNEST MYATT CHILDREN'S DEVELOPMENT CENTER,Five Star Center License
93,316 COLONADES WAY SUITE 101 C,,CARY,NC,27518,(984) 232-0259,ESTEEM ME --- MCP,Five Star Center License
94,316 COLONADES WAY SUITE 107 C,,CARY,NC,27518,(919) 795-8449,ESTEEM ME MONTESSORI & CREATIVE PLAY,Five Star Center License
95,1001 OLIVE CHAPEL ROAD,,APEX,NC,27502,(919) 446-4304,EVERBROOK ACADEMY,Five Star Center License
96,1147 EXECUTIVE CIRCLE,,CARY,NC,27511,(919) 469-4114,EXECUTIVE PARK LEARNING CENTER,Five Star Center License
97,4309 TEN TEN ROAD,,APEX,NC,27539,(919) 362-0052,FAIRVIEW CHILDREN'S CENTER,Five Star Center License
98,6840 FALLS OF NEUSE RD,,RALEIGH,NC,27615,(919) 848-3675,FALLS ACADEMY,Four Star Center License
99,120 WEST HARGETT,,RALEIGH,NC, 27601-1314,(919) 821-1845,FIRST PRESBYTERIAN CHURCH CHILD DEV CTR,Four Star Center License
100,100 LAWSON RIDGE ROAD,,KNIGHTDALE,NC, 27545-6713,(919) 266-8487,FORESTVILLE ROAD ELEMENTARY,Four Star Center License
101,2823 SANDERFORD ROAD,,RALEIGH,NC, 27610-5835,(919) 833-7309,FOUNDATIONS ACADEMY,Five Star Center License
102,3311 CARL SANDBURG COURT,,RALEIGH,NC,27610,(919) 821-7436,FRANKIE LEMMON SCHOOL AND DEVELOPMENT CENTER,Five Star Center License
103,301 N WOODROW STREET,,FUQUAY-VARINA,NC,27526,(919) 552-9586,FUQUAY-VARINA BAPTIST WEE CARE,GS 110-106
104,901 AVERSBORO ROAD,,GARNER,NC,27529,(919) 772-4072,"GARNER ACADEMY, INC",Three Star Center License
105,2235 GARNER ROAD,,RALEIGH,NC,27610,(919) 856-2356,GARNER ROAD COMMUNITY CENTER,Four Star Center License
106,1521 NORTH MAIN STREET,,FUQUAY-VARINA,NC,27526,(919) 552-4723,GINGERBREAD LITTLEVERSITY UPTOWN,Five Star Center License
107,7441 WHITE OAK RD,,GARNER,NC,27529,(919) 661-2327,GOOD-HONEY BEARS CHILD DEVELOPMENT CTR I,Three Star Center License
108,7441 WHITE OAK RD,,GARNER,NC,27529,(919) 661-2327,GOOD-HONEYBEARS CHILD DEVELOPMENT CTR INC. II,Three Star Center License
109,312 N MAIN STREET,,HOLLY SPRINGS,NC,27540,(919) 346-1061,GREAT MINDS MONTESSORI ACADEMY INC.,One Star Center License
110,821 S NEW HOPE RD SUITE 105,,RALEIGH,NC,27610,(919) 231-0777,GREATER WORD OF TRUTH CHILD DEVELOPMENT CENTER,GS 110-106
111,1002 MULFORD COURT,,KNIGHTDALE,NC,27545,(919) 217-4888,GROW-N-LEARN CHILD CARE CENTER OF KNIGHTDALE,Three Star Center License
112,12600 SPRUCE TREE WAY,,RALEIGH,NC,27614,(919) 825-1771,GUIDEPOST MONTESSORI SPRUCE TREE,One Star Center License
113,3922 BUFFALOE ROAD,,RALEIGH,NC,27604,(919) 790-5472,"GURU ACADEMY, INC.",Three Star Center License
114,301 NORTH KING CHARLES ROAD,,RALEIGH,NC,27610,(919) 235-2618,HAPPY TIMES CHILDCARE LEARNING CENTER,Three Star Center License
115,8504 HARPS MILL RD,,RALEIGH,NC, 27615-3882,(919) 850-9323,HARPS MILL CREATIVE SCHOOL,Five Star Center License
116,3500 BUFFALOE ROAD,,RALEIGH,NC,27604,(919) 878-5201,HARVEST CHURCH DAYCARE,GS 110-106
117,112 BYRUM ST,,CARY,NC,27511,(919) 465-2113,HEARTWOOD MONTESSORI SCHOOL,One Star Center License
118,2255 HERBERT AKINS RD,,FUQUAY-VARINA,NC,27526,(919) 567-4100,HERBERT AKINS ELEMENTARY,Four Star Center License
119,3425 ROGERS ROAD,,WAKE FOREST,NC,27587,(919) 556-7199,"HERITAGE CHILDREN'S ACADEMY, INC.",Four Star Center License
120,615 MACK TODD ROAD,,ZEBULON,NC,27597,(919) 269-6504,HERITAGE CHRISTIAN ACADEMY DAYCARE,GS 110-106
121,1901 RIDGE ROAD,,RALEIGH,NC,27607,(919) 787-2182,HIGHLAND CHILDREN'S CENTER,Five Star Center License
122,7410 FALLS OF NEUSE RD,,RALEIGH,NC,27615,(919) 846-2449,HILLEL SCHOOL,Five Star Center License
123,148 E VANCE STREET,,ZEBULON,NC,27597,(919) 269-5640,"HOCUTT'S CHILD CARE, INC.",Four Star Center License
124,2128 MINGO BLUFF BLVD,,KNIGHTDALE,NC, 27545-6713,(919) 266-8599,HODGE ROAD ELEMENTARY,Four Star Center License
125,116 QUANTUM STREET,,HOLLY SPRINGS,NC,27540,(919) 552-8331,HOLLY SPRINGS ACADEMY,Five Star Center License
126,1180 HOLLY SPRINGS ROAD,,HOLLY SPRINGS,NC,27540,(919) 577-6119,HOLLY SPRINGS LEARNING CENTER,Five Star Center License
127,101 ARBOR CREEK DR,,HOLLY SPRINGS,NC,27540,(919) 303-9009,HOLLY SPRINGS SCHOOL FOR EARLY EDUCATION,Four Star Center License
128,5000 LEAD MINE ROAD,,RALEIGH,NC,27612,(919) 861-8171,HOLY TRINITY PRESCHOOL,GS 110-106
129,3525 ROGERS ROAD,,WAKE FOREST,NC,27587,(919) 453-0388,HOPE LUTHERAN PRESCHOOL,GS 110-106
130,1000 LAWNDALE ST,,GARNER,NC,27529,(919) 779-3335,HUCKLEBERRY'S FRIENDS PRESCHOOL AND CHILD CARE,Five Star Center License
131,1515 CROSSLINK ROAD,,RALEIGH,NC,27610,(919) 773-9136,HUGS R PRECIOUS CHILD ENRICHMENT CENTER,Three Star Center License
132,1801 SPRING FOREST RD,,RALEIGH,NC, 27615-7435,(919) 878-9927,IN THE BEGINNING...,Three Star Center License
133,99 N SALISBURY STREET,,RALEIGH,NC,27603,(919) 832-4650,INFANT/TODDLER CENTER OF FIRST BAPTIST CHURCH,Five Star Center License
134,804 COLEMAN STREET,,RALEIGH,NC,27610,(919) 832-5294,INFANTS PALACE,Three Star Center License
135,2204 NORTH MAIN STREET,,FUQUAY-VARINA,NC,27526,(919) 586-7155,"IQ KIDS ACADEMY, INC.",Probationary License
136,4104 SAINT JAMES CHURCH RD,,RALEIGH,NC,27604,(919) 760-9876,"IRREGULAR TIME CHILD CARE CENTER, LLC",Five Star Center License
137,4030-100 CAPITAL BLVD,,RALEIGH,NC,27604,(919) 760-9876,IRREGULAR TIME ENRICHMENT CENTER,Five Star Center License
138,722 SHELLEY ROAD,,RALEIGH,NC, 27609-5166,(919) 332-6701,IVY LEAGUE PRESCHOOL,Five Star Center License
139,6119 CREEDMOOR RD,,RALEIGH,NC,27612,(919) 365-8990,JEFFREYS GROVE ELEMENTARY,Four Star Center License
140,616 HADLEY ROAD,,RALEIGH,NC,27610,(919) 664-8976,JO'S DAYCARE,Four Star Center License
141,6523 JOHNSON POND ROAD,,FUQUAY-VARINA,NC,27526,(919) 557-9448,JOHNSON POND LEARNING CENTER,Five Star Center License
142,1305 GLENWOOD AVE,,RALEIGH,NC, 27605-0917,(919) 833-5428,JORDAN CHILD AND FAMILY ENRICHMENT CENTER,Five Star Center License
143,1323 CLAYMORE STREET,,GARNER,NC,27529,(919) 779-1218,JUDY SHUMAN'S DAY CARE,Three Star Center License
144,3920 NEELY ST,,RALEIGH,NC,27606,(919) 858-8660,KENTWOOD HEAD START CENTER,Five Star Center License
145,3250 FORESTVILLE ROAD,,RALEIGH,NC,27616,(919) 266-0344,"KID'S EDUCATIONAL CENTER VI, INC.",Three Star Center License
146,9920 SELLONA STREET,,RALEIGH,NC,27617,(919) 536-7100,KIDDIE ACADEMY OF BRIER CREEK,Four Star Center License
147,1450 TRYON MANOR DRIVE,,CARY,NC,27518,(919) 803-5000,KIDDIE ACADEMY OF CARY,Five Star Center License
148,610 LAKESTONE COMMONS AVE,,FUQUAY-VARINA,NC,27526,(919) 577-5588,KIDDIE ACADEMY OF FUQUAY VARINA,Four Star Center License
149,150 ROSEWOOD CENTRE DRIVE,,HOLLY SPRINGS,NC,27540,(919) 367-0088,KIDDIE ACADEMY OF HOLLY SPRINGS,Five Star Center License
150,2000 CARRINGTON MILL BLVD,,MORRISVILLE,NC,27560,(919) 234-6972,KIDDIE ACADEMY OF MORRISVILLE,Five Star Center License
151,7350 O'KELLY CHAPEL RD,,CARY,NC,27519,(919) 592-3646,KIDDIE ACADEMY OF WEST CARY,Five Star Center License
152,5616 FOX ROAD,,RALEIGH,NC,27616,(919) 621-5986,KIDDIE KARE ACADEMY,Three Star Center License
153,4325 TRYON ROAD,,RALEIGH,NC,27606,(919) 828-1800,KIDDIE UNIVERSITY,Four Star Center License
154,7421 SIEMENS ROAD,,WENDELL,NC, 27591-8318,(919) 365-4991,"KIDS EDUCATIONAL CENTER #2, INC.",Three Star Center License
155,1020 JONES DAIRY RD,,WAKE FOREST,NC, 27587-8284,(919) 554-3721,"KIDS EDUCATIONAL CENTER III, INC.",Three Star Center License
156,7106 FORESTVILLE ROAD,,KNIGHTDALE,NC,27545,(919) 217-2323,KIDS EDUCATIONAL CENTER IV,Four Star Center License
157,4605 OLD FAISON ROAD,,KNIGHTDALE,NC, 27545-9185,(919) 266-1988,"KIDS EDUCATIONAL CENTER, INC.",Four Star Center License
158,3308 POOLE RD SUITE 102,,RALEIGH,NC,27610,(919) 255-3313,KIDS FIRST ACADEMY,Five Star Center License
159,6010 MCCRIMMON PARKWAY,,MORRISVILLE,NC,27560,(919) 460-1500,KIDS R KIDS OF MORRISVILLE,Five Star Center License
160,150 TOWNE VILLAGE DRIVE,,CARY,NC,27513,(919) 467-1112,KIDS R KIDS QUALITY LEARNING CENTER,Five Star Center License
161,7580 CARPENTER FIRE STATION RD,,CARY,NC,27519,(919) 461-2202,KIDS R KIDS WEST CARY,Five Star Center License
162,821 BUCK JONES RD,,RALEIGH,NC,27606,(919) 532-8410,KIDTOWNE AT HOPE COMMUNITY CHURCH,GS 110-106
163,2080 EAST WILLIAMS STREET,,APEX,NC,27539,(919) 629-6570,KIDTOWNE AT HOPE COMMUNITY CHURCH - APEX,GS 110-106
164,100 EAST JUDD STREET,,ZEBULON,NC,27597,(919) 404-1992,KIDZ KONNECTION INC.,Three Star Center License
165,3129 POPLARWOOD COURT,,RALEIGH,NC, 27604-1008,(919) 850-0234,KINDERCARE LEARNING CENTERS LLC,Four Star Center License
166,300 EARNIE LANE,,HOLLY SPRINGS,NC,27540,(919) 577-0220,KINDERCARE LEARNING CENTER,Five Star Center License
167,2880 HIGHWAY 55,,CARY,NC,27519,(919) 362-1115,KINDERCARE LEARNING CENTER,Five Star Center License
168,6560 TRYON ROAD,,CARY,NC,27518,(919) 854-1515,KINDERCARE LEARNING CENTER,Five Star Center License
169,8050 CHAPEL HILL RD,,CARY,NC,27513,(919) 469-0252,KINDERCARE LEARNING CENTER,Four Star Center License
170,321 SPRING FOREST ROAD,,RALEIGH,NC,27609,(919) 870-1704,KINDERCARE LEARNING CENTER,Four Star Center License
171,1590 DUNN ROAD,,RALEIGH,NC,27614,(919) 821-2261,KINDERCARE LEARNING CENTER,Five Star Center License
172,101 OCEANA PLACE,,CARY,NC,27513,(919) 481-0272,KINDERCARE LEARNING CENTER,Four Star Center License
173,9301 LEESVILLE RD,,RALEIGH,NC,27613,(919) 848-2292,KINDERCARE LEARNING CENTER,Five Star Center License
174,1201 FRIENDSHIP CHAPEL RD,,WAKE FOREST,NC,27587,(919) 554-9982,KINDERCARE LEARNING CENTER,Five Star Center License
175,131 KEYBRIDGE DRIVE,,MORRISVILLE,NC,27560,(919) 678-8233,KINDERCARE LEARNING CENTER,Five Star Center License
176,2300 SPRING FOREST RD,,RALEIGH,NC,27615,(919) 954-7662,KINDERCARE LEARNING CENTER,Four Star Center License
177,1815 OLIVE CHAPEL RD,,APEX,NC,27502,(919) 629-4813,KINDERCARE LEARNING CENTER,Five Star Center License
178,10350 DURANT RD,,RALEIGH,NC,27614,(919) 846-2424,KINDERCARE LEARNING CENTER,Four Star Center License
179,932 HEATHER PARK DRIVE,,GARNER,NC,27529,(919) 779-2126,KINDERCARE LEARNING CENTER,Five Star Center License
180,3103 KELLEY AUSTIN DR,,RALEIGH,NC,27610,(919) 231-1936,KINDERCARE LEARNING CENTER,Five Star Center License
181,2220 WENDELL FALLS PARKWAY,,WENDELL,NC,27591,(919) 365-0159,KINDERCARE LEARNING CENTER WENDELL FALLS,Four Star Center License
182,1118 E MAYNARD ROAD,,CARY,NC,27511,(919) 469-0866,KINDERCARE LEARNING CENTERS LLC,Five Star Center License
183,9325 LEESVILLE ROAD,,RALEIGH,NC, 27613-7515,(919) 848-8960,KINDERCARE LEARNING CENTERS LLC,Four Star Center License
184,223 W MILLBROOK ROAD,,RALEIGH,NC, 27609-4303,(919) 781-4642,KINDERCARE LEARNING CENTERS LLC,Three Star Center License
185,203 KILMAYNE DRIVE,,CARY,NC,27511,(919) 469-8790,KINDERCARE LEARNING CENTERS LLC,Five Star Center License
186,250 CORNERSTONE DRIVE,,CARY,NC,27519,(919) 466-8684,KINDERCARE LEARNING CENTERS LLC,Five Star Center License
187,2300 BRIDGEPORT DRIVE,,RALEIGH,NC, 27615-4301,(919) 676-8937,KINDERCARE LEARNING CENTERS LLC,Five Star Center License
188,200 FOREST DR,,KNIGHTDALE,NC, 27545-9604,(919) 266-4166,KINDERCARE LEARNING CENTERS LLC,Five Star Center License
189,1101 VANDORA SPRINGS RD,,GARNER,NC,27529,(919) 720-4010,KING'S KIDS EARLY EDUCATION AND LEARNING CENTER IN,Five Star Center License
190,7900 TEN-TEN ROAD,,RALEIGH,NC,27603,(919) 779-9456,KING'S TOWN CHILD DEVELOPMENT CENTER,GS 110-106
191,109 RIDGE ST,,KNIGHTDALE,NC,27545,(919) 266-8540,KNIGHTDALE ELEMENTARY,One Star Center License
192,1020 TODD ROAD,,KNIGHTDALE,NC,27545,(919) 266-1240,KNIGHTDALE HEAD START,Five Star Center License
193,710 LIGHTRAIL DRIVE,,KNIGHTDALE,NC,27545,(919) 752-6883,KNIGHTDALE STATION PRESCHOOL,Three Star Center License
194,10741 FOREST PINES DRIVE,,RALEIGH,NC, 27614-8017,(919) 570-3401,KNOWLEDGE BEGINNINGS,Five Star Center License
195,2733 COMMUNITY DRIVE,,RALEIGH,NC,27610,(919) 255-3418,KREEPERS-N-KRAWLERS,Five Star Center License
196,1413 AVERSBORO ROAD,,GARNER,NC,27529,(919) 779-5901,LA PETITE ACADEMY,Five Star Center License
197,7601 SIX FORKS ROAD,,RALEIGH,NC, 27615-5022,(919) 846-7602,LA PETITE ACADEMY,Five Star Center License
198,1420 HEDINGHAM BOULEVARD,,RALEIGH,NC, 27604-8302,(919) 231-8185,LA PETITE ACADEMY,Five Star Center License
199,955 WEST CHATHAM STREET,,CARY,NC, 27511-3168,(919) 467-5875,LA PETITE ACADEMY,Five Star Center License
200,9313 LEESVILLE ROAD,,RALEIGH,NC, 27613-7514,(919) 846-3557,LA PETITE ACADEMY,Five Star Center License
201,10250 CHAPEL HILL ROAD,,MORRISVILLE,NC,27560,(919) 655-0655,LA PETITE ACADEMY,Five Star Center License
202,104 BAINES COURT,,CARY,NC,27511,(919) 469-5735,LA PETITE ACADEMY,Five Star Center License
203,1300 ELK FALLS RD,,WENDELL,NC,27591,(919) 365-8990,LAKE MYRA ELEMENTARY,Five Star Center License
204,6601 PLEASANT PINES DRIVE,,RALEIGH,NC,27613,(919) 571-7469,LAPETITE ACADEMY,Five Star Center License
205,1411 AVERSBORO ROAD SUITE 303,,GARNER,NC,27529,(919) 773-3076,LAPETITE ACADEMY BEFORE & AFTER SCHOOL CARE,Five Star Center License
206,4008 MITCHELL MILL RD STE 100,,RALEIGH,NC,27616,(919) 373-8282,LEARNING AS WE GO CHILD CARE CENTER,Three Star Center License
207,568 E LENOIR STREET SUITE 204,,RALEIGH,NC,27601,(919) 856-5200,"LEARNING TOGETHER, INC.",Five Star Center License
208,1030 N ROGERS LANE SUITE 141,,RALEIGH,NC,27610,(919) 264-9838,LEARNING WORLD CHILDCARE & PRESCHOOL,Three Star Center License
209,907 NORTH STATE STREET,,RALEIGH,NC, 27604-2367,(919) 831-9244,LECOUNT'S NURSERY AND DAY CARE,Four Star Center License
210,307 BRIDGE ST,,FUQUAY-VARINA,NC,27526,(919) 557-2587,LINCOLN HEIGHTS ELEMENTARY,Four Star Center License
211,724 SOUTH MAIN STREET,,FUQUAY-VARINA,NC,27526,(919) 552-5575,LITTLE ANGELS PREPARATORY SCHOOL,Four Star Center License
212,309 HOLMAN STREET,,GARNER,NC,27529,(919) 720-4773,LITTLE BELIEVER'S ACADAMY II INC.,Five Star Center License
213,3329 FORESTVILLE RD,,RALEIGH,NC,27616,(919) 266-6124,LITTLE DESTINY LITERACY,Five Star Center License
214,2906 BRENTWOOD RD,,RALEIGH,NC,27604,(919) 981-0034,LITTLE HANDS N FEET CHILD CARE CENTER,Five Star Center License
215,3217 FORESTVILLE ROAD,,RALEIGH,NC,27616,(919) 373-8440,LITTLE LEAF DISCOVERY SCHOOL,Three Star Center License
216,2800 SOURWOOD STREET,,RALEIGH,NC,27610,(919) 828-2184,LITTLE LEARNERS' MAGIC MOMENTS PRESCHOOL,Four Star Center License
217,2801 S WILIMINGTON ST,,RALEIGH,NC,27603,(919) 703-8047,LITTLE MAKERS ACADEMY,Three Star Center License
218,4210 SAINT JAMES CHURCH RD,,RALEIGH,NC,27604,(919) 876-1761,LITTLE PEOPLE PRESCHOOL L.L.C.,Four Star Center License
219,4206 SAINT JAMES CHURCH RD,,RALEIGH,NC,27604,(919) 218-7499,LITTLE PEOPLE PRESCHOOL LLC INFANTS & TODDLERS,Three Star Center License
220,2117 PINEY PLAINS ROAD,,CARY,NC,27511,(919) 859-0041,LITTLE TREASURES LEARNING CENTER,Four Star Center License
221,314 BAINBRIDGE CIRCLE,,GARNER,NC,27529,(919) 594-1170,LOTS OF LOVE AND LEARNING FAMILY CHILD CARE,Five Star Center License
222,9003 WESTON PARKWAY,,CARY,NC, 27513-2201,(919) 677-1400,LUCY DANIELS CENTER FOR EARLY CHILDHOOD,Five Star Center License
223,1024 LYNN ROAD,,RALEIGH,NC,27612,(919) 239-4687,LYNN ROAD CHILDCARE ACADEMY,Three Star Center License
224,1601 LYNN ROAD,,RALEIGH,NC,27612,(919) 870-4074,LYNN ROAD ELEMENTARY PRE-K PROGRAM,Five Star Center License
225,12401 STRICKLAND ROAD,,RALEIGH,NC,27613,(919) 745-1359,MARACAS MONTESSORI,One Star Center License
226,2721 RENFROW ROAD,,RALEIGH,NC,27603,(919) 832-9888,"MARIAH'S CHRISTIAN PRESCHOOL CENTER, INC.",Four Star Center License
227,1108 HADLEY ROAD,,RALEIGH,NC,27610,(919) 771-5255,MATTHEW CHAPEL DAY CARE #2,Three Star Center License
228,900 TRAILWOOD DRIVE,,RALEIGH,NC,27606,(919) 852-4568,METHOD CHILD DEVELOPMENT CENTER,Five Star Center License
229,1520 E MILLBROOK RD,,RALEIGH,NC,27609,(919) 850-8700,MILLBROOK ELEMENTARY,Four Star Center License
230,402 UPCHURCH STREET,,APEX,NC,27502,(919) 372-8181,MONTESSORI CREATIVE LEARNING SCHOOL,Three Star Center License
231,524 SUNNYBROOK ROAD,,RALEIGH,NC,27610,(919) 250-1828,MORNING STAR CHILD CARE LEARNING CENTER,GS 110-106
232,201 MORRISVILLE SQUARE WAY,,MORRISVILLE,NC,27560,(919) 460-6449,MORRISVILLE SQUARE CREATIVE SCHOOL,Three Star Center License
233,2625 TRAWICK ROAD,,RALEIGH,NC,27604,(919) 431-8337,MS. VAN'S CHILDCARE CENTER,Five Star Center License
234,6620 SIX FORKS ROAD,,RALEIGH,NC, 27615-6518,(919) 848-4834,NORTH HAVEN CHILD DEVELOPMENT CENTER,GS 110-106
235,110 TALS ROCK WAY,,CARY,NC,27519,(919) 377-1802,OAK VILLAGE ACADEMY,Five Star Center License
236,204 DIXIE TRAIL,,RALEIGH,NC,27607,(919) 856-7699,OLDS ELEMENTARY BEFORE AND AFTER SCHOOL PROGRAM,Four Star Center License
237,10275 CHAPEL HILL RD,,MORRISVILLE,NC,27560,(919) 632-9112,ORIGINS MONTESSORI SCHOOL,One Star Center License
238,417 WALTON ST,,RALEIGH,NC,27610,(919) 802-9963,PAM'S LOVING HANDS CHILD DEVELOPMENT CENTER,Three Star Center License
239,2705 NEW BERN AVE,,RALEIGH,NC,27610,(919) 832-0766,PAM'S SCHOOL OF RALEIGH,Five Star Center License
240,128 MORRISVILLE SQUARE WAY,,MORRISVILLE,NC,27560,(919) 271-3182,PARAMOUNT MONTESSORI,One Star Center License
241,102 YMCA DRIVE,,CARY,NC, 27513-4870,(919) 657-0577,PARKWAY HEAD START,Five Star Center License
242,2190 NORTH SALEM STREET SUITE 103,,APEX,NC,27523,(919) 363-2461,PEACE MONTESSORI SCHOOL,One Star Center License
243,1110 NEWTON ROAD,,RALEIGH,NC,27615,(919) 847-2650,PRECIOUS LAMBS EARLY LEARNING CENTER,Five Star Center License
244,4301 PEARL ROAD,,RALEIGH,NC,27610,(919) 884-5991,PRECIOUS PROMISES ACADEMY,Five Star Center License
245,551 JAMES JACKSON AVE,,CARY,NC,27513,(919) 297-0007,PRESTON CHILDREN'S ACADEMY,Five Star Center License
246,316 S KING CHARLES RD,,RALEIGH,NC,27610,(919) 231-3564,"PRICELESS CHILD CARE, INC.",Five Star Center License
247,2100 NORTH HILLS DR,,RALEIGH,NC,27612,(919) 785-0303,PRIMARY BEGINNINGS CHILD DEVELOPMENT CENTER,Five Star Center License
248,4001 SPRING FOREST RD,,RALEIGH,NC,27616,(919) 790-6888,"PRIMARY BEGINNINGS CHILD DEVELOPMENT CENTER, LLC",Five Star Center License
249,11151 SALEM GLEN LANE,,RALEIGH,NC,27617,(919) 880-2416,PRIMROSE SCHOOL AT BRIER CREEK,Four Star Center License
250,1530 AVENT FERRY ROAD,,HOLLY SPRINGS,NC,27540,(919) 567-1114,PRIMROSE SCHOOL AT HOLLY GROVE,Four Star Center License
251,131 LATTNER COURT,,MORRISVILLE,NC,27560,(919) 468-8880,PRIMROSE SCHOOL AT THE PARK,Five Star Center License
252,4501 WEST LAKE RD,,APEX,NC,27539,(919) 662-1322,PRIMROSE SCHOOL AT WEST LAKE,Five Star Center License
253,1710 LAURA DUNCAN RD,,APEX,NC,27502,(919) 339-3874,PRIMROSE SCHOOL OF APEX,Five Star Center License
254,1500 EVANS ROAD,,CARY,NC,27513,(919) 481-3901,PRIMROSE SCHOOL OF CARY,Five Star Center License
255,844 HERITAGE LAKE ROAD,,WAKE FOREST,NC,27587,(919) 453-2554,PRIMROSE SCHOOL OF HERITAGE WAKE FOREST,Five Star Center License
256,6941 HILBURN DR,,RALEIGH,NC,27613,(919) 783-8222,PRIMROSE SCHOOL OF HILBURN,Four Star Center License
257,8521 FALLS OF NEUSE ROAD,,RALEIGH,NC,27615,(919) 329-2929,PRIMROSE SCHOOL OF NORTH RALEIGH,One Star Center License
258,2511 NC HIGHWAY 55,,CARY,NC,27519,(919) 363-2700,PRIMROSE SCHOOL OF WEST CARY,Four Star Center License
259,501 S BOYLAN AVENUE,,RALEIGH,NC,27603,(919) 856-7774,PROJECT ENLIGHTENMENT,Five Star Center License
260,1035 HALIFAX STREET,,RALEIGH,NC,27604,(919) 834-2136,"RALEIGH NURSERY SCHOOL, INC.",Five Star Center License
261,300 ARBOR GREENE DRIVE,,GARNER,NC,27529,(919) 662-2275,RAND ROAD ELEMENTARY BEFORE AND AFTER SCHOOL PRGRM,One Star Center License
262,201 POWHATAN DRIVE,,FUQUAY-VARINA,NC,27526,(919) 552-3332,"READY OR NOT, HERE I GROW DAY SCHOOL",Five Star Center License
263,3322 DUTCHMAN RD,,RALEIGH,NC,27610,(919) 390-3545,REGINA'S PRESCHOOL & KIDZ ACADEMY INC. #2,Four Star Center License
264,610 NOTTINGHAM DRIVE,,CARY,NC,27511,(919) 439-0130,RENAISSANCE MONTESSORI SCHOOL OF CARY,One Star Center License
265,3116 BLUE RIDGE ROAD,,RALEIGH,NC,27612,(919) 784-3983,REX HEALTHCARE CHILD DEVELOPMENT CENTER,Five Star Center License
266,4905 BURLINGTON MILLS RD,,ROLESVILLE,NC, 27571-9998,(919) 556-5249,"RHYMES & REASONS, INC.",Three Star Center License
267,1900 EDWIN DRIVE,,RALEIGH,NC,27610,(919) 833-6840,RISING STARS JRVERSITY CHILD DEVELOPMENT CENTER,Five Star Center License
268,210 N ROGERS LANE,,RALEIGH,NC,27610,(919) 694-8670,ROGERS LANE ELEMENTARY,One Star Center License
269,6600 ROGERS RD,,ROLESVILLE,NC,27571,(919) 554-3870,ROLESVILLE CREEK LEARNING CENTER,Three Star Center License
270,3202 NORTHAMPTON ST,,RALEIGH,NC,27609,(919) 881-4940,ROOT ELEMENTARY,Four Star Center License
271,615 ROYAL STREET,,RALEIGH,NC,27607,(919) 322-0016,SAFE HAVEN PRESCHOOL AND CHILDCARE CENTER,Five Star Center License
272,3757 TRYON RIDGE DRIVE,,RALEIGH,NC,27610,(919) 696-2256,SANDI'S TINY BLESSINGS,Four Star Center License
273,701 GRANITE FALLS BLVD,,ROLESVILLE,NC,27571,(919) 570-2100,SANFORD CREEK ELEMENTARY,Four Star Center License
274,200 MATRIX DRIVE BLDG I,,CARY,NC,27513,(919) 531-7819,SAS INSTITUTE MONTESSORI PRESCHOOL,One Star Center License
275,400 MATRIX DRIVE,,CARY,NC,27513,(919) 531-5955,SAS INSTITUTE MONTESSORI SCHOOL,One Star Center License
276,317 E LENOIR STREET,,RALEIGH,NC,27601,(919) 546-8365,SHAW UNIV. CENTER FOR EARLY CHILDHOOD EDUCATION,Five Star Center License
277,400 EARP ST,,HOLLY SPRINGS,NC,27540,(919) 552-9624,SISTERS' CHILD CARE SERVICES,Three Star Center License
278,400 GATHERING PARK CIRCLE,,CARY,NC,27519,(919) 621-0182,"SOUNDS AND COLORS AT CARPENTER VILLAGE, LLC",Five Star Center License
279,201 HIGH HOUSE ROAD,,CARY,NC,27513,(919) 265-7513,SOUNDS AND COLORS AT CARY,Five Star Center License
280,2275 GRASSLAND DRIVE,,FUQUAY-VARINA,NC,27526,(919) 577-1144,SOUTH WAKE PRESCHOOL & ACADEMY,Three Star Center License
281,812 NEW BERN AVE,,RALEIGH,NC,27610,(919) 591-1355,SOUTHEAST RALEIGH DAY CARE,Three Star Center License
282,1436 ROCK QUARRY RD,,RALEIGH,NC,27610,(919) 694-8448,SOUTHEAST RALEIGH ELEMENTARY,One Star Center License
283,1436 ROCK QUARRY RD,,RALEIGH,NC,27610,(919) 694-8444,SOUTHEAST RALEIGH ELEMENTARY HEAD START,One Star Center License
284,100 ENDEAVOR WAY,,CARY,NC,27513,(919) 677-7114,SPANISH FOR FUN !,Five Star Center License
285,8000 GLENWOOD AVENUE,,RALEIGH,NC,27612,(919) 881-1160,SPANISH FOR FUN!,Five Star Center License
286,5600 DURALEIGH RD,,RALEIGH,NC,27612,(919) 881-1695,SPANISH FOR FUN! INFANT AND TODDLER CENTER,Five Star Center License
287,222 CAPCOM AVENUE,,WAKE FOREST,NC,27587,(919) 883-2061,SPANISH FOR FUN! WAKE FOREST,Five Star Center License
288,3407 N NEW HOPE ROAD,,RALEIGH,NC,27604,(919) 878-4477,ST MARY'S PRESCHOOL,GS 110-106
289,4690 WENDELL BLVD,,WENDELL,NC,27591,(919) 365-0028,STEPS & STAGES CHILDREN'S CENTER,Three Star Center License
290,202 TREYBROOKE DR,,MORRISVILLE,NC,27560,(919) 462-8889,STERLING MONTESSORI ACADEMY,One Star Center License
291,2625 GARNER ROAD,,RALEIGH,NC,27610,(919) 829-0722,SUNNY CHRISTIAN CHILD CARE,Five Star Center License
292,741 CHAPPELL DRIVE,,RALEIGH,NC,27606,(919) 832-3909,TAMMY LYNN CENTER,Five Star Center License
293,1509 FOXWOOD DRIVE,,GARNER,NC,27529,(919) 662-1026,TAYLOR'S DAY CARE HOME,Five Star Center License
294,1417 CLIFTON STREET,,RALEIGH,NC, 27604-2091,(919) 833-6079,TEMPLE BAPTIST SCHOOL & DAY CARE,GS 110-106
295,5315 CREEDMOOR ROAD,,RALEIGH,NC, 27612-6304,(919) 781-4895,TEMPLE BETH OR PRESCHOOL,Five Star Center License
296,300 SE CARY PARKWAY,,CARY,NC, 27511-7601,(919) 466-7530,THE CARY SCHOOL FOR DEVELOPMENT & EARLY EDUCATION,Five Star Center License
297,7100 HOLLY SPRINGS ROAD,,RALEIGH,NC,27606,(919) 851-3553,THE CHILDREN'S PLACE,GS 110-106
298,10308 HOLLY SPRINGS ROAD,,HOLLY SPRINGS,NC,27540,(919) 285-3992,THE CLUBHOUSE,Five Star Center License
299,735 ROCK QUARRY ROAD,,RALEIGH,NC,27610,(919) 828-6443,THE DANIEL CENTER FOR MATH AND SCIENCE,Five Star Center License
300,6600 CREEDMOOR RD,,RALEIGH,NC,27613,(919) 787-5002,THE GODDARD SCHOOL,Five Star Center License
301,1177 NW MAYNARD RD,,CARY,NC,27513,(919) 466-0008,THE GODDARD SCHOOL,Five Star Center License
302,4027 DAVIS DR,,MORRISVILLE,NC,27560,(919) 467-0467,THE GODDARD SCHOOL,Five Star Center License
303,1308 HERITAGE LINKS DRIVE,,WAKE FOREST,NC,27587,(919) 570-1005,"THE GODDARD SCHOOL - WAKE FOREST, INC.",Five Star Center License
304,655 OLD HONEYCUTT ROAD,,FUQUAY-VARINA,NC,27526,(919) 552-8359,THE GODDARD SCHOOL / FUQUAY-VARINA,Five Star Center License
305,3701 GREEN LEVEL RD WEST,,APEX,NC,27523,(919) 258-2000,THE GODDARD SCHOOL APEX GREEN LEVEL WEST,Temporary License
306,10550 LITTLE BRIER CREEK LN,,RALEIGH,NC,27617,(919) 572-0678,THE GODDARD SCHOOL IN BRIER CREEK,Five Star Center License
307,801 EARP STREET,,HOLLY SPRINGS,NC,27540,(919) 552-3196,THE GODDARD SCHOOL IN HOLLY SPRINGS,Four Star Center License
308,903 OLIVE CHAPEL ROAD,,APEX,NC,27502,(919) 362-3999,THE GODDARD SCHOOL OF APEX,Five Star Center License
309,2385 KILDAIRE FARM RD,,CARY,NC,27518,(919) 307-5200,THE GODDARD SCHOOL OF CARY LOCHMERE,One Star Center License
310,1215 RIDGE RD,,RALEIGH,NC,27607,(919) 578-8883,THE GODDARD SCHOOL-RALEIGH RIDGE RD,Four Star Center License
311,2590 LAURA DUNCAN ROAD,,CARY,NC,27513,(919) 467-6494,THE GROVE SCHOOL OF CARY,Five Star Center License
312,7600 FALLS OF NEUSE ROAD,,RALEIGH,NC,27615,(919) 847-0160,THE GROWING PLACE,GS 110-106
313,470 W WILLIAMS ST,,APEX,NC,27502,(919) 387-8189,THE GROWING YEARS LEARNING CENTER - APEX,Five Star Center License
314,102 DAVIS GROVE CIRCLE,,CARY,NC,27519,(919) 589-0400,THE GROWING YEARS LEARNING CENTER - CARY,Five Star Center License
315,5010 FORT SUMTER ROAD,,RALEIGH,NC,27606,(919) 233-8081,THE HAPPY FACE PRESCHOOL,Five Star Center License
316,801 HOLLY SPRINGS RD,,HOLLY SPRINGS,NC,27540,(919) 557-3085,THE LEARNING EXPERIENCE,Four Star Center License
317,8213 QUOIN WAY,,RALEIGH,NC,27613,(919) 803-5333,THE LEARNING EXPERIENCE,Five Star Center License
318,560 EVENING STAR DRIVE,,APEX,NC,27502,(919) 303-7475,THE LEARNING EXPERIENCE,Five Star Center License
319,2185 DAVIS DRIVE,,CARY,NC,27519,(919) 463-1104,THE LEARNING EXPERIENCE @ CARY,Five Star Center License
320,2020 MARQUEE LANE,,FUQUAY-VARINA,NC,27526,(919) 762-0902,THE LEARNING EXPERIENCE FUQUAY VARINA,Four Star Center License
321,8101 TARGET SIDE DRIVE,,RALEIGH,NC,27616,(919) 876-3428,THE LEARNING EXPERIENCE RALEIGH NE,Temporary License
322,1200 CORPORATE CHAPLAIN DRIVE,,WAKE FOREST,NC,27587,(919) 562-1070,THE LEARNING EXPERIENCE WAKE FOREST,Five Star Center License
323,1720 TRAWICK RD,,RALEIGH,NC,27604,(919) 798-4051,THE LEARNING RAINBOW CHILD DEVELOPMENT CENTER,Three Star Center License
324,334 SOUTH MAIN STREET,,FUQUAY-VARINA,NC,27526,(919) 552-0989,THE LOVING LOFT CHILD DEVELOPMENT CENTER LLC,Three Star Center License
325,5617 SUNSET LAKE RD,,HOLLY SPRINGS,NC,27540,(919) 303-3636,THE NEW SCHOOL #2,Three Star Center License
326,8400 FALLS OF NEUSE ROAD,,RALEIGH,NC,27615,(919) 847-2101,TINY TREASURE KIDS INC.,Three Star Center License
327,2489 WENDELL BLVD,,WENDELL,NC,27591,(919) 366-1926,TOTALLY KIDS CHILDCARE CENTER,Four Star Center License
328,7209 STEPHEN BOYD COURT,,RALEIGH,NC,27616,(919) 868-7123,TOUCHED BY AN ANGEL,Five Star Center License
329,1005 A-BIG OAK COURT,,KNIGHTDALE,NC,27545,(919) 868-7123,TOUCHED BY AN ANGEL OPEN ARMS CHILD CARE CENTER,Four Star Center License
330,3301-104 ROCK QUARRY RD,,RALEIGH,NC,27610,(919) 868-7123,TOUCHED BY LORRAINE'S LOVING HANDS,Three Star Center License
331,200 DANCERS POINTE LN,,CARY,NC,27518,(919) 363-0850,TRIANGLE ACADEMY PRESCHOOL,Five Star Center License
332,2209 CANDUN DRIVE,,APEX,NC,27523,(919) 367-7758,TRIANGLE CHILDREN'S ACADEMY,Four Star Center License
333,11100 FELLOWSHIP DRIVE,,RALEIGH,NC,27617,(919) 846-0470,TRIANGLE LEARNING CENTER,GS 110-106
334,540 E CHATHAM ST,,CARY,NC,27511,(919) 463-7770,TRIANGLE MONTESSORI ACADEMY,One Star Center License
335,4815 SIX FORKS ROAD,,RALEIGH,NC,27609,(919) 782-6192,TRINITY BAPTIST WEEKDAY PRESCHOOL,GS 110-106
336,523 N MAIN STREET,,FUQUAY-VARINA,NC,27526,(919) 557-9900,UNIQUE CREATIONS CHILD CARE CENTER,Four Star Center License
337,3330 IDLEWOOD VILLAGE DR,,RALEIGH,NC,27610,(919) 829-6250,UPPER ROOM CHRISTIAN ACADEMY,Five Star Center License
338,8808 OLD STAGE RD,,RALEIGH,NC,27603,(919) 662-2472,VANCE ELEMENTARY,Four Star Center License
339,608 ROYAL STREET,,RALEIGH,NC, 27607-5422,(919) 834-1025,VITAL LINK IS CROSS LINK,One Star Center License
340,2100 SOUTH MAIN STREET,,WAKE FOREST,NC,27587,(919) 556-3370,"WAKE FOREST CHILD CARE CENTER, INC.",Three Star Center License
341,136 W SYCAMORE AVE,,WAKE FOREST,NC,27587,(919) 554-8440,WAKE FOREST ELEMENTARY,Four Star Center License
342,1941 HERITAGE BRANCH ROAD,,WAKE FOREST,NC,27587,(919) 453-2543,WAKE FOREST KIDS 'R' KIDS,Five Star Center License
343,231 CAPCOM AVENUE SUITE 180,,WAKE FOREST,NC,27587,(919) 827-1148,WAKE FOREST MONTESSORI,One Star Center License
344,2700 WAKEFIELD PINES DRIVE,,RALEIGH,NC,27614,(919) 562-7900,WAKEFIELD CREATIVE SCHOOL,Five Star Center License
345,8921 PIPPIN ROAD,,ZEBULON,NC,27597,(919) 404-3844,WAKELON ELEMENTARY,One Star Center License
346,2600 SUNNYBROOK RD,,RALEIGH,NC,27610,(919) 857-9500,WALNUT CREEK ELEMENTARY,One Star Center License
347,3308 POOLE RD SUITE 108,,RALEIGH,NC,27610,(919) 231-9960,WANDA'S LITTLE HANDS EDUCATIONAL CENTER #1,Five Star Center License
348,3400 POOLE RD,,RALEIGH,NC,27610,(919) 231-6004,WANDA'S LITTLE HANDS EDUCATIONAL CENTER #2,Five Star Center License
349,313 S E MAYNARD ROAD,,CARY,NC,27511,(919) 469-2217,WHITE PLAINS CHILDREN'S CENTER,Five Star Center License
350,9565 FLATROCK PARK DRIVE,,KNIGHTDALE,NC,27545,(919) 266-0036,WIDEWATERS LEARNING CENTER,Five Star Center License
351,3707 MARSH CREEK RD,,RALEIGH,NC,27604,(919) 850-8738,WILBURN ELEMENTARY,Four Star Center License
352,3000 ROCK QUARRY ROAD,,RALEIGH,NC,27610,(919) 834-1141,WORD OF GOD EARLY LEARNING CENTER,GS 110-106
353,5109 OAK PARK DR,,RALEIGH,NC,27612,(610) 462-7706,WREN AND WILLOW MONTESSORI,Four Star Center License
354,5993 YATES MILL POND RD,,RALEIGH,NC,27606,(919) 233-4244,YATES MILL ELEMENTARY,Four Star Center License
